<?xml version="1.0"?>
<gpx version="1.1" creator="Organic Maps" xmlns="http://www.topografix.com/GPX/1/1"
    xmlns:gpxx="http://www.garmin.com/xmlschemas/GpxExtensions/v3"
    xmlns:gpx_style="http://www.topografix.com/GPX/gpx_style/0/2"
    xmlns:xsi="http://www.w3.org/2001/XMLSchema-instance"
    xsi:schemaLocation="http://www.topografix.com/GPX/1/1 https://www.topografix.com/GPX/1/1/gpx.xsd http://www.topografix.com/GPX/gpx_style/0/2 https://www.topografix.com/GPX/gpx_style/0/2/gpx_style.xsd http://www.garmin.com/xmlschemas/GpxExtensions/v3 https://www.garmin.com/xmlschemas/GpxExtensionsv3.xsd">
<metadata>
  <name>Gendarmaría</name>
</metadata>
<trk>
  <name>Gendarmaría</name>
  <extensions>
    <gpxx:TrackExtension><gpxx:DisplayColor>Cyan</gpxx:DisplayColor></gpxx:TrackExtension>
    <gpx_style:line><gpx_style:color>14BECD</gpx_style:color></gpx_style:line>
    <xsi:gpx><color>#FF14BECD</color></xsi:gpx>
  </extensions>
  <trkseg>
    <trkpt lat="-48.878101" lon="-72.73986">
      <ele>298</ele>
    </trkpt>
    <trkpt lat="-48.877932" lon="-72.739775">
      <ele>298</ele>
    </trkpt>
    <trkpt lat="-48.87753" lon="-72.739357">
      <ele>296</ele>
    </trkpt>
    <trkpt lat="-48.877374" lon="-72.739271">
      <ele>296</ele>
    </trkpt>
    <trkpt lat="-48.877288" lon="-72.739244">
      <ele>296</ele>
    </trkpt>
    <trkpt lat="-48.87714" lon="-72.739193">
      <ele>296</ele>
    </trkpt>
    <trkpt lat="-48.876341" lon="-72.739027">
      <ele>291</ele>
    </trkpt>
    <trkpt lat="-48.875997" lon="-72.739035">
      <ele>289</ele>
    </trkpt>
    <trkpt lat="-48.875751" lon="-72.739096">
      <ele>288</ele>
    </trkpt>
    <trkpt lat="-48.875293" lon="-72.739139">
      <ele>285</ele>
    </trkpt>
    <trkpt lat="-48.875088" lon="-72.73907">
      <ele>284</ele>
    </trkpt>
    <trkpt lat="-48.874924" lon="-72.738952">
      <ele>282</ele>
    </trkpt>
    <trkpt lat="-48.874845" lon="-72.738895">
      <ele>282</ele>
    </trkpt>
    <trkpt lat="-48.874585" lon="-72.738635">
      <ele>281</ele>
    </trkpt>
    <trkpt lat="-48.874547" lon="-72.738563">
      <ele>281</ele>
    </trkpt>
    <trkpt lat="-48.87449" lon="-72.738386">
      <ele>279</ele>
    </trkpt>
    <trkpt lat="-48.874469" lon="-72.738337">
      <ele>279</ele>
    </trkpt>
    <trkpt lat="-48.874416" lon="-72.738302">
      <ele>279</ele>
    </trkpt>
    <trkpt lat="-48.874155" lon="-72.738214">
      <ele>279</ele>
    </trkpt>
    <trkpt lat="-48.873844" lon="-72.738273">
      <ele>277</ele>
    </trkpt>
    <trkpt lat="-48.873636" lon="-72.73823">
      <ele>274</ele>
    </trkpt>
    <trkpt lat="-48.873049" lon="-72.738364">
      <ele>269</ele>
    </trkpt>
    <trkpt lat="-48.872738" lon="-72.738471">
      <ele>273</ele>
    </trkpt>
    <trkpt lat="-48.872475" lon="-72.738517">
      <ele>272</ele>
    </trkpt>
    <trkpt lat="-48.872331" lon="-72.738573">
      <ele>272</ele>
    </trkpt>
    <trkpt lat="-48.871503" lon="-72.739311">
      <ele>278</ele>
    </trkpt>
    <trkpt lat="-48.871233" lon="-72.739434">
      <ele>278</ele>
    </trkpt>
    <trkpt lat="-48.871036" lon="-72.739563">
      <ele>281</ele>
    </trkpt>
    <trkpt lat="-48.870933" lon="-72.739614">
      <ele>282</ele>
    </trkpt>
    <trkpt lat="-48.870664" lon="-72.740089">
      <ele>293</ele>
    </trkpt>
    <trkpt lat="-48.870302" lon="-72.740319">
      <ele>296</ele>
    </trkpt>
    <trkpt lat="-48.869882" lon="-72.740952">
      <ele>302</ele>
    </trkpt>
    <trkpt lat="-48.869751" lon="-72.741274">
      <ele>302</ele>
    </trkpt>
    <trkpt lat="-48.869665" lon="-72.741577">
      <ele>303</ele>
    </trkpt>
    <trkpt lat="-48.869238" lon="-72.742031">
      <ele>305</ele>
    </trkpt>
    <trkpt lat="-48.869025" lon="-72.7422">
      <ele>305</ele>
    </trkpt>
    <trkpt lat="-48.868688" lon="-72.742412">
      <ele>306</ele>
    </trkpt>
    <trkpt lat="-48.86861" lon="-72.742481">
      <ele>306</ele>
    </trkpt>
    <trkpt lat="-48.868518" lon="-72.742589">
      <ele>306</ele>
    </trkpt>
    <trkpt lat="-48.868077" lon="-72.743262">
      <ele>304</ele>
    </trkpt>
    <trkpt lat="-48.86798" lon="-72.743501">
      <ele>305</ele>
    </trkpt>
    <trkpt lat="-48.867941" lon="-72.743712">
      <ele>307</ele>
    </trkpt>
    <trkpt lat="-48.867927" lon="-72.743782">
      <ele>308</ele>
    </trkpt>
    <trkpt lat="-48.867939" lon="-72.743881">
      <ele>309</ele>
    </trkpt>
    <trkpt lat="-48.867961" lon="-72.743922">
      <ele>310</ele>
    </trkpt>
    <trkpt lat="-48.867982" lon="-72.743962">
      <ele>311</ele>
    </trkpt>
    <trkpt lat="-48.868044" lon="-72.744018">
      <ele>312</ele>
    </trkpt>
    <trkpt lat="-48.868215" lon="-72.744126">
      <ele>316</ele>
    </trkpt>
    <trkpt lat="-48.868275" lon="-72.744203">
      <ele>318</ele>
    </trkpt>
    <trkpt lat="-48.868308" lon="-72.744281">
      <ele>319</ele>
    </trkpt>
    <trkpt lat="-48.868328" lon="-72.74437">
      <ele>320</ele>
    </trkpt>
    <trkpt lat="-48.868324" lon="-72.744528">
      <ele>322</ele>
    </trkpt>
    <trkpt lat="-48.868289" lon="-72.744887">
      <ele>324</ele>
    </trkpt>
    <trkpt lat="-48.868269" lon="-72.744992">
      <ele>324</ele>
    </trkpt>
    <trkpt lat="-48.868194" lon="-72.745233">
      <ele>326</ele>
    </trkpt>
    <trkpt lat="-48.868051" lon="-72.745528">
      <ele>329</ele>
    </trkpt>
    <trkpt lat="-48.867975" lon="-72.745756">
      <ele>332</ele>
    </trkpt>
    <trkpt lat="-48.867941" lon="-72.746019">
      <ele>334</ele>
    </trkpt>
    <trkpt lat="-48.867897" lon="-72.746143">
      <ele>335</ele>
    </trkpt>
    <trkpt lat="-48.867689" lon="-72.746373">
      <ele>337</ele>
    </trkpt>
    <trkpt lat="-48.867592" lon="-72.746513">
      <ele>337</ele>
    </trkpt>
    <trkpt lat="-48.867537" lon="-72.746636">
      <ele>338</ele>
    </trkpt>
    <trkpt lat="-48.867491" lon="-72.746821">
      <ele>339</ele>
    </trkpt>
    <trkpt lat="-48.867493" lon="-72.746939">
      <ele>339</ele>
    </trkpt>
    <trkpt lat="-48.867521" lon="-72.747022">
      <ele>340</ele>
    </trkpt>
    <trkpt lat="-48.86761" lon="-72.74717">
      <ele>341</ele>
    </trkpt>
    <trkpt lat="-48.867627" lon="-72.74728">
      <ele>342</ele>
    </trkpt>
    <trkpt lat="-48.867581" lon="-72.747567">
      <ele>345</ele>
    </trkpt>
    <trkpt lat="-48.867574" lon="-72.747765">
      <ele>347</ele>
    </trkpt>
    <trkpt lat="-48.86761" lon="-72.748093">
      <ele>349</ele>
    </trkpt>
    <trkpt lat="-48.867624" lon="-72.748283">
      <ele>350</ele>
    </trkpt>
    <trkpt lat="-48.867608" lon="-72.748433">
      <ele>351</ele>
    </trkpt>
    <trkpt lat="-48.86737" lon="-72.748948">
      <ele>355</ele>
    </trkpt>
    <trkpt lat="-48.867375" lon="-72.749072">
      <ele>355</ele>
    </trkpt>
    <trkpt lat="-48.8674" lon="-72.74912">
      <ele>356</ele>
    </trkpt>
    <trkpt lat="-48.867474" lon="-72.749152">
      <ele>357</ele>
    </trkpt>
    <trkpt lat="-48.867539" lon="-72.749109">
      <ele>358</ele>
    </trkpt>
    <trkpt lat="-48.867576" lon="-72.749259">
      <ele>360</ele>
    </trkpt>
    <trkpt lat="-48.867592" lon="-72.749471">
      <ele>361</ele>
    </trkpt>
    <trkpt lat="-48.867682" lon="-72.749715">
      <ele>364</ele>
    </trkpt>
    <trkpt lat="-48.86779" lon="-72.749589">
      <ele>365</ele>
    </trkpt>
    <trkpt lat="-48.867848" lon="-72.749619">
      <ele>367</ele>
    </trkpt>
    <trkpt lat="-48.867918" lon="-72.7496">
      <ele>368</ele>
    </trkpt>
    <trkpt lat="-48.868029" lon="-72.749506">
      <ele>369</ele>
    </trkpt>
    <trkpt lat="-48.868208" lon="-72.749281">
      <ele>370</ele>
    </trkpt>
    <trkpt lat="-48.868269" lon="-72.74923">
      <ele>370</ele>
    </trkpt>
    <trkpt lat="-48.868388" lon="-72.749192">
      <ele>371</ele>
    </trkpt>
    <trkpt lat="-48.868502" lon="-72.749203">
      <ele>372</ele>
    </trkpt>
    <trkpt lat="-48.868585" lon="-72.749246">
      <ele>374</ele>
    </trkpt>
    <trkpt lat="-48.868762" lon="-72.749404">
      <ele>377</ele>
    </trkpt>
    <trkpt lat="-48.868908" lon="-72.749493">
      <ele>380</ele>
    </trkpt>
    <trkpt lat="-48.868979" lon="-72.749495">
      <ele>381</ele>
    </trkpt>
    <trkpt lat="-48.86909" lon="-72.749458">
      <ele>382</ele>
    </trkpt>
    <trkpt lat="-48.869339" lon="-72.749294">
      <ele>383</ele>
    </trkpt>
    <trkpt lat="-48.869432" lon="-72.749265">
      <ele>384</ele>
    </trkpt>
    <trkpt lat="-48.869691" lon="-72.749286">
      <ele>388</ele>
    </trkpt>
    <trkpt lat="-48.869794" lon="-72.749316">
      <ele>390</ele>
    </trkpt>
    <trkpt lat="-48.869854" lon="-72.749369">
      <ele>390</ele>
    </trkpt>
    <trkpt lat="-48.869901" lon="-72.749463">
      <ele>391</ele>
    </trkpt>
    <trkpt lat="-48.869919" lon="-72.749605">
      <ele>391</ele>
    </trkpt>
    <trkpt lat="-48.869933" lon="-72.750619">
      <ele>396</ele>
    </trkpt>
    <trkpt lat="-48.869977" lon="-72.750756">
      <ele>397</ele>
    </trkpt>
    <trkpt lat="-48.870044" lon="-72.750823">
      <ele>398</ele>
    </trkpt>
    <trkpt lat="-48.870277" lon="-72.750903">
      <ele>398</ele>
    </trkpt>
    <trkpt lat="-48.870335" lon="-72.750933">
      <ele>399</ele>
    </trkpt>
    <trkpt lat="-48.870399" lon="-72.751">
      <ele>399</ele>
    </trkpt>
    <trkpt lat="-48.870445" lon="-72.751113">
      <ele>400</ele>
    </trkpt>
    <trkpt lat="-48.870512" lon="-72.751598">
      <ele>401</ele>
    </trkpt>
    <trkpt lat="-48.870551" lon="-72.751735">
      <ele>402</ele>
    </trkpt>
    <trkpt lat="-48.870736" lon="-72.752223">
      <ele>404</ele>
    </trkpt>
    <trkpt lat="-48.87081" lon="-72.752314">
      <ele>405</ele>
    </trkpt>
    <trkpt lat="-48.871099" lon="-72.752553">
      <ele>407</ele>
    </trkpt>
    <trkpt lat="-48.871281" lon="-72.75277">
      <ele>410</ele>
    </trkpt>
    <trkpt lat="-48.871389" lon="-72.752867">
      <ele>410</ele>
    </trkpt>
    <trkpt lat="-48.871863" lon="-72.753221">
      <ele>417</ele>
    </trkpt>
    <trkpt lat="-48.871953" lon="-72.753334">
      <ele>418</ele>
    </trkpt>
    <trkpt lat="-48.872047" lon="-72.7535">
      <ele>417</ele>
    </trkpt>
    <trkpt lat="-48.872267" lon="-72.753961">
      <ele>413</ele>
    </trkpt>
    <trkpt lat="-48.87244" lon="-72.754173">
      <ele>414</ele>
    </trkpt>
    <trkpt lat="-48.872696" lon="-72.75439">
      <ele>416</ele>
    </trkpt>
    <trkpt lat="-48.872821" lon="-72.754543">
      <ele>415</ele>
    </trkpt>
    <trkpt lat="-48.872945" lon="-72.754648">
      <ele>414</ele>
    </trkpt>
    <trkpt lat="-48.873405" lon="-72.754892">
      <ele>418</ele>
    </trkpt>
    <trkpt lat="-48.873479" lon="-72.754959">
      <ele>419</ele>
    </trkpt>
    <trkpt lat="-48.873527" lon="-72.755056">
      <ele>419</ele>
    </trkpt>
    <trkpt lat="-48.87358" lon="-72.755257">
      <ele>418</ele>
    </trkpt>
    <trkpt lat="-48.873638" lon="-72.755576">
      <ele>415</ele>
    </trkpt>
    <trkpt lat="-48.87374" lon="-72.755726">
      <ele>415</ele>
    </trkpt>
    <trkpt lat="-48.873998" lon="-72.755892">
      <ele>419</ele>
    </trkpt>
    <trkpt lat="-48.874317" lon="-72.756048">
      <ele>424</ele>
    </trkpt>
    <trkpt lat="-48.874437" lon="-72.756163">
      <ele>425</ele>
    </trkpt>
    <trkpt lat="-48.874598" lon="-72.756378">
      <ele>425</ele>
    </trkpt>
    <trkpt lat="-48.874981" lon="-72.757129">
      <ele>426</ele>
    </trkpt>
    <trkpt lat="-48.875372" lon="-72.757765">
      <ele>425</ele>
    </trkpt>
    <trkpt lat="-48.8757" lon="-72.758408">
      <ele>430</ele>
    </trkpt>
    <trkpt lat="-48.875896" lon="-72.758907">
      <ele>431</ele>
    </trkpt>
    <trkpt lat="-48.876012" lon="-72.759146">
      <ele>433</ele>
    </trkpt>
    <trkpt lat="-48.87621" lon="-72.75946">
      <ele>436</ele>
    </trkpt>
    <trkpt lat="-48.876325" lon="-72.75961">
      <ele>439</ele>
    </trkpt>
    <trkpt lat="-48.876658" lon="-72.759918">
      <ele>444</ele>
    </trkpt>
    <trkpt lat="-48.876727" lon="-72.760007">
      <ele>444</ele>
    </trkpt>
    <trkpt lat="-48.876827" lon="-72.760181">
      <ele>446</ele>
    </trkpt>
    <trkpt lat="-48.877103" lon="-72.760809">
      <ele>450</ele>
    </trkpt>
    <trkpt lat="-48.877057" lon="-72.761066">
      <ele>447</ele>
    </trkpt>
    <trkpt lat="-48.877147" lon="-72.761241">
      <ele>449</ele>
    </trkpt>
    <trkpt lat="-48.877226" lon="-72.761294">
      <ele>451</ele>
    </trkpt>
    <trkpt lat="-48.877325" lon="-72.76142">
      <ele>455</ele>
    </trkpt>
    <trkpt lat="-48.877441" lon="-72.761364">
      <ele>460</ele>
    </trkpt>
    <trkpt lat="-48.877528" lon="-72.761375">
      <ele>463</ele>
    </trkpt>
    <trkpt lat="-48.87763" lon="-72.761466">
      <ele>466</ele>
    </trkpt>
    <trkpt lat="-48.877695" lon="-72.761576">
      <ele>469</ele>
    </trkpt>
    <trkpt lat="-48.877942" lon="-72.762158">
      <ele>483</ele>
    </trkpt>
    <trkpt lat="-48.877939" lon="-72.762346">
      <ele>485</ele>
    </trkpt>
    <trkpt lat="-48.877919" lon="-72.762475">
      <ele>485</ele>
    </trkpt>
    <trkpt lat="-48.877921" lon="-72.762606">
      <ele>486</ele>
    </trkpt>
    <trkpt lat="-48.877972" lon="-72.762861">
      <ele>489</ele>
    </trkpt>
    <trkpt lat="-48.877992" lon="-72.76322">
      <ele>489</ele>
    </trkpt>
    <trkpt lat="-48.878011" lon="-72.763349">
      <ele>489</ele>
    </trkpt>
    <trkpt lat="-48.878218" lon="-72.764105">
      <ele>492</ele>
    </trkpt>
    <trkpt lat="-48.878265" lon="-72.764229">
      <ele>492</ele>
    </trkpt>
    <trkpt lat="-48.878307" lon="-72.76429">
      <ele>493</ele>
    </trkpt>
    <trkpt lat="-48.878382" lon="-72.76436">
      <ele>495</ele>
    </trkpt>
    <trkpt lat="-48.878505" lon="-72.764427">
      <ele>500</ele>
    </trkpt>
    <trkpt lat="-48.878644" lon="-72.764435">
      <ele>506</ele>
    </trkpt>
    <trkpt lat="-48.878846" lon="-72.764392">
      <ele>509</ele>
    </trkpt>
    <trkpt lat="-48.87907" lon="-72.7644">
      <ele>512</ele>
    </trkpt>
    <trkpt lat="-48.879214" lon="-72.764449">
      <ele>513</ele>
    </trkpt>
    <trkpt lat="-48.879376" lon="-72.764548">
      <ele>514</ele>
    </trkpt>
    <trkpt lat="-48.879673" lon="-72.76461">
      <ele>519</ele>
    </trkpt>
    <trkpt lat="-48.879816" lon="-72.764666">
      <ele>522</ele>
    </trkpt>
    <trkpt lat="-48.880006" lon="-72.764851">
      <ele>525</ele>
    </trkpt>
    <trkpt lat="-48.880158" lon="-72.765098">
      <ele>527</ele>
    </trkpt>
    <trkpt lat="-48.880241" lon="-72.765288">
      <ele>528</ele>
    </trkpt>
    <trkpt lat="-48.88026" lon="-72.765387">
      <ele>529</ele>
    </trkpt>
    <trkpt lat="-48.88025" lon="-72.765554">
      <ele>528</ele>
    </trkpt>
    <trkpt lat="-48.880167" lon="-72.765803">
      <ele>530</ele>
    </trkpt>
    <trkpt lat="-48.879936" lon="-72.766302">
      <ele>533</ele>
    </trkpt>
    <trkpt lat="-48.87974" lon="-72.766605">
      <ele>533</ele>
    </trkpt>
    <trkpt lat="-48.879708" lon="-72.766699">
      <ele>534</ele>
    </trkpt>
    <trkpt lat="-48.879703" lon="-72.766814">
      <ele>536</ele>
    </trkpt>
    <trkpt lat="-48.87972" lon="-72.766895">
      <ele>538</ele>
    </trkpt>
    <trkpt lat="-48.879793" lon="-72.766989">
      <ele>541</ele>
    </trkpt>
    <trkpt lat="-48.88011" lon="-72.767163">
      <ele>547</ele>
    </trkpt>
    <trkpt lat="-48.880244" lon="-72.767254">
      <ele>550</ele>
    </trkpt>
    <trkpt lat="-48.880516" lon="-72.767547">
      <ele>552</ele>
    </trkpt>
    <trkpt lat="-48.88059" lon="-72.767587">
      <ele>552</ele>
    </trkpt>
    <trkpt lat="-48.880731" lon="-72.767584">
      <ele>552</ele>
    </trkpt>
    <trkpt lat="-48.88095" lon="-72.767536">
      <ele>553</ele>
    </trkpt>
    <trkpt lat="-48.881093" lon="-72.767539">
      <ele>554</ele>
    </trkpt>
    <trkpt lat="-48.881213" lon="-72.767573">
      <ele>554</ele>
    </trkpt>
    <trkpt lat="-48.881386" lon="-72.767716">
      <ele>553</ele>
    </trkpt>
    <trkpt lat="-48.88146" lon="-72.767753">
      <ele>552</ele>
    </trkpt>
    <trkpt lat="-48.88153" lon="-72.767758">
      <ele>552</ele>
    </trkpt>
    <trkpt lat="-48.881675" lon="-72.767745">
      <ele>552</ele>
    </trkpt>
    <trkpt lat="-48.882322" lon="-72.767576">
      <ele>554</ele>
    </trkpt>
    <trkpt lat="-48.88252" lon="-72.767579">
      <ele>554</ele>
    </trkpt>
    <trkpt lat="-48.882677" lon="-72.767611">
      <ele>556</ele>
    </trkpt>
    <trkpt lat="-48.882897" lon="-72.767724">
      <ele>560</ele>
    </trkpt>
    <trkpt lat="-48.883343" lon="-72.768104">
      <ele>566</ele>
    </trkpt>
    <trkpt lat="-48.883462" lon="-72.76815">
      <ele>567</ele>
    </trkpt>
    <trkpt lat="-48.883666" lon="-72.768134">
      <ele>568</ele>
    </trkpt>
    <trkpt lat="-48.883804" lon="-72.768099">
      <ele>569</ele>
    </trkpt>
    <trkpt lat="-48.884186" lon="-72.76797">
      <ele>570</ele>
    </trkpt>
    <trkpt lat="-48.884426" lon="-72.767855">
      <ele>570</ele>
    </trkpt>
    <trkpt lat="-48.884605" lon="-72.767807">
      <ele>570</ele>
    </trkpt>
    <trkpt lat="-48.884717" lon="-72.767828">
      <ele>569</ele>
    </trkpt>
    <trkpt lat="-48.884945" lon="-72.767952">
      <ele>571</ele>
    </trkpt>
    <trkpt lat="-48.885047" lon="-72.768059">
      <ele>571</ele>
    </trkpt>
    <trkpt lat="-48.885314" lon="-72.768523">
      <ele>571</ele>
    </trkpt>
    <trkpt lat="-48.8855" lon="-72.768743">
      <ele>575</ele>
    </trkpt>
    <trkpt lat="-48.885615" lon="-72.768802">
      <ele>576</ele>
    </trkpt>
    <trkpt lat="-48.88574" lon="-72.768788">
      <ele>578</ele>
    </trkpt>
    <trkpt lat="-48.885846" lon="-72.768721">
      <ele>579</ele>
    </trkpt>
    <trkpt lat="-48.886363" lon="-72.768308">
      <ele>585</ele>
    </trkpt>
    <trkpt lat="-48.886509" lon="-72.768233">
      <ele>587</ele>
    </trkpt>
    <trkpt lat="-48.886622" lon="-72.768228">
      <ele>588</ele>
    </trkpt>
    <trkpt lat="-48.886864" lon="-72.768335">
      <ele>589</ele>
    </trkpt>
    <trkpt lat="-48.88695" lon="-72.768354">
      <ele>590</ele>
    </trkpt>
    <trkpt lat="-48.887093" lon="-72.768367">
      <ele>591</ele>
    </trkpt>
    <trkpt lat="-48.887603" lon="-72.768349">
      <ele>594</ele>
    </trkpt>
    <trkpt lat="-48.88777" lon="-72.768373">
      <ele>595</ele>
    </trkpt>
    <trkpt lat="-48.88791" lon="-72.768445">
      <ele>596</ele>
    </trkpt>
    <trkpt lat="-48.888137" lon="-72.768614">
      <ele>597</ele>
    </trkpt>
    <trkpt lat="-48.888513" lon="-72.768813">
      <ele>600</ele>
    </trkpt>
    <trkpt lat="-48.888783" lon="-72.768869">
      <ele>601</ele>
    </trkpt>
    <trkpt lat="-48.889439" lon="-72.768869">
      <ele>606</ele>
    </trkpt>
    <trkpt lat="-48.889769" lon="-72.768941">
      <ele>608</ele>
    </trkpt>
    <trkpt lat="-48.889918" lon="-72.769003">
      <ele>609</ele>
    </trkpt>
    <trkpt lat="-48.890996" lon="-72.769623">
      <ele>622</ele>
    </trkpt>
    <trkpt lat="-48.891617" lon="-72.770111">
      <ele>627</ele>
    </trkpt>
    <trkpt lat="-48.892267" lon="-72.77051">
      <ele>629</ele>
    </trkpt>
    <trkpt lat="-48.892622" lon="-72.770763">
      <ele>625</ele>
    </trkpt>
    <trkpt lat="-48.893632" lon="-72.7712">
      <ele>620</ele>
    </trkpt>
    <trkpt lat="-48.893717" lon="-72.771267">
      <ele>620</ele>
    </trkpt>
    <trkpt lat="-48.893922" lon="-72.771503">
      <ele>622</ele>
    </trkpt>
    <trkpt lat="-48.894073" lon="-72.771632">
      <ele>624</ele>
    </trkpt>
    <trkpt lat="-48.89466" lon="-72.771916">
      <ele>628</ele>
    </trkpt>
    <trkpt lat="-48.894805" lon="-72.771964">
      <ele>627</ele>
    </trkpt>
    <trkpt lat="-48.895036" lon="-72.77198">
      <ele>626</ele>
    </trkpt>
    <trkpt lat="-48.895385" lon="-72.771921">
      <ele>624</ele>
    </trkpt>
    <trkpt lat="-48.895599" lon="-72.771996">
      <ele>622</ele>
    </trkpt>
    <trkpt lat="-48.895845" lon="-72.772165">
      <ele>621</ele>
    </trkpt>
    <trkpt lat="-48.896503" lon="-72.772734">
      <ele>619</ele>
    </trkpt>
    <trkpt lat="-48.896928" lon="-72.773037">
      <ele>614</ele>
    </trkpt>
    <trkpt lat="-48.897462" lon="-72.773281">
      <ele>609</ele>
    </trkpt>
    <trkpt lat="-48.89773" lon="-72.77334">
      <ele>606</ele>
    </trkpt>
    <trkpt lat="-48.898046" lon="-72.77338">
      <ele>603</ele>
    </trkpt>
    <trkpt lat="-48.898289" lon="-72.773579">
      <ele>601</ele>
    </trkpt>
    <trkpt lat="-48.898744" lon="-72.77371">
      <ele>598</ele>
    </trkpt>
    <trkpt lat="-48.898857" lon="-72.773767">
      <ele>598</ele>
    </trkpt>
    <trkpt lat="-48.899005" lon="-72.773879">
      <ele>598</ele>
    </trkpt>
    <trkpt lat="-48.89954" lon="-72.774432">
      <ele>592</ele>
    </trkpt>
    <trkpt lat="-48.899663" lon="-72.774493">
      <ele>591</ele>
    </trkpt>
    <trkpt lat="-48.899719" lon="-72.774512">
      <ele>591</ele>
    </trkpt>
    <trkpt lat="-48.899779" lon="-72.774515">
      <ele>591</ele>
    </trkpt>
    <trkpt lat="-48.899841" lon="-72.774507">
      <ele>590</ele>
    </trkpt>
    <trkpt lat="-48.899899" lon="-72.774483">
      <ele>590</ele>
    </trkpt>
    <trkpt lat="-48.899929" lon="-72.774467">
      <ele>590</ele>
    </trkpt>
    <trkpt lat="-48.899956" lon="-72.774443">
      <ele>590</ele>
    </trkpt>
    <trkpt lat="-48.899977" lon="-72.77441">
      <ele>590</ele>
    </trkpt>
    <trkpt lat="-48.899994" lon="-72.77437">
      <ele>591</ele>
    </trkpt>
    <trkpt lat="-48.900009" lon="-72.774319">
      <ele>591</ele>
    </trkpt>
    <trkpt lat="-48.900014" lon="-72.774266">
      <ele>591</ele>
    </trkpt>
    <trkpt lat="-48.900039" lon="-72.774166">
      <ele>592</ele>
    </trkpt>
    <trkpt lat="-48.900072" lon="-72.77407">
      <ele>593</ele>
    </trkpt>
    <trkpt lat="-48.900097" lon="-72.774013">
      <ele>594</ele>
    </trkpt>
    <trkpt lat="-48.900128" lon="-72.773962">
      <ele>595</ele>
    </trkpt>
    <trkpt lat="-48.900166" lon="-72.773922">
      <ele>595</ele>
    </trkpt>
    <trkpt lat="-48.900206" lon="-72.773893">
      <ele>596</ele>
    </trkpt>
    <trkpt lat="-48.900248" lon="-72.773871">
      <ele>596</ele>
    </trkpt>
    <trkpt lat="-48.900292" lon="-72.773863">
      <ele>596</ele>
    </trkpt>
    <trkpt lat="-48.900335" lon="-72.773869">
      <ele>596</ele>
    </trkpt>
    <trkpt lat="-48.900377" lon="-72.773882">
      <ele>596</ele>
    </trkpt>
    <trkpt lat="-48.900418" lon="-72.773906">
      <ele>596</ele>
    </trkpt>
    <trkpt lat="-48.900453" lon="-72.773941">
      <ele>596</ele>
    </trkpt>
    <trkpt lat="-48.900957" lon="-72.774295">
      <ele>592</ele>
    </trkpt>
    <trkpt lat="-48.901059" lon="-72.774341">
      <ele>592</ele>
    </trkpt>
    <trkpt lat="-48.901163" lon="-72.77437">
      <ele>592</ele>
    </trkpt>
    <trkpt lat="-48.901269" lon="-72.774386">
      <ele>591</ele>
    </trkpt>
    <trkpt lat="-48.901375" lon="-72.774389">
      <ele>591</ele>
    </trkpt>
    <trkpt lat="-48.901479" lon="-72.774375">
      <ele>591</ele>
    </trkpt>
    <trkpt lat="-48.901562" lon="-72.774357">
      <ele>591</ele>
    </trkpt>
    <trkpt lat="-48.901641" lon="-72.77433">
      <ele>591</ele>
    </trkpt>
    <trkpt lat="-48.901805" lon="-72.774298">
      <ele>590</ele>
    </trkpt>
    <trkpt lat="-48.901969" lon="-72.774279">
      <ele>588</ele>
    </trkpt>
    <trkpt lat="-48.902091" lon="-72.774274">
      <ele>588</ele>
    </trkpt>
    <trkpt lat="-48.902211" lon="-72.774276">
      <ele>587</ele>
    </trkpt>
    <trkpt lat="-48.902331" lon="-72.774284">
      <ele>587</ele>
    </trkpt>
    <trkpt lat="-48.902692" lon="-72.774295">
      <ele>589</ele>
    </trkpt>
    <trkpt lat="-48.902824" lon="-72.7743">
      <ele>591</ele>
    </trkpt>
    <trkpt lat="-48.902955" lon="-72.774316">
      <ele>592</ele>
    </trkpt>
    <trkpt lat="-48.903085" lon="-72.774338">
      <ele>593</ele>
    </trkpt>
    <trkpt lat="-48.903214" lon="-72.77437">
      <ele>595</ele>
    </trkpt>
    <trkpt lat="-48.903337" lon="-72.77441">
      <ele>596</ele>
    </trkpt>
    <trkpt lat="-48.903461" lon="-72.774459">
      <ele>597</ele>
    </trkpt>
    <trkpt lat="-48.903581" lon="-72.774518">
      <ele>598</ele>
    </trkpt>
    <trkpt lat="-48.903699" lon="-72.774587">
      <ele>599</ele>
    </trkpt>
    <trkpt lat="-48.903813" lon="-72.774665">
      <ele>599</ele>
    </trkpt>
    <trkpt lat="-48.903888" lon="-72.774721">
      <ele>599</ele>
    </trkpt>
    <trkpt lat="-48.90396" lon="-72.77478">
      <ele>599</ele>
    </trkpt>
    <trkpt lat="-48.904101" lon="-72.774904">
      <ele>601</ele>
    </trkpt>
    <trkpt lat="-48.90424" lon="-72.775035">
      <ele>602</ele>
    </trkpt>
    <trkpt lat="-48.90433" lon="-72.775126">
      <ele>602</ele>
    </trkpt>
    <trkpt lat="-48.904425" lon="-72.77521">
      <ele>602</ele>
    </trkpt>
    <trkpt lat="-48.904522" lon="-72.775279">
      <ele>602</ele>
    </trkpt>
    <trkpt lat="-48.904623" lon="-72.775341">
      <ele>601</ele>
    </trkpt>
    <trkpt lat="-48.904725" lon="-72.775392">
      <ele>601</ele>
    </trkpt>
    <trkpt lat="-48.904829" lon="-72.775432">
      <ele>601</ele>
    </trkpt>
    <trkpt lat="-48.904949" lon="-72.775464">
      <ele>601</ele>
    </trkpt>
    <trkpt lat="-48.905071" lon="-72.775483">
      <ele>602</ele>
    </trkpt>
    <trkpt lat="-48.905192" lon="-72.775486">
      <ele>603</ele>
    </trkpt>
    <trkpt lat="-48.905284" lon="-72.775486">
      <ele>604</ele>
    </trkpt>
    <trkpt lat="-48.905374" lon="-72.775499">
      <ele>604</ele>
    </trkpt>
    <trkpt lat="-48.905462" lon="-72.775523">
      <ele>604</ele>
    </trkpt>
    <trkpt lat="-48.90555" lon="-72.775558">
      <ele>604</ele>
    </trkpt>
    <trkpt lat="-48.905635" lon="-72.775604">
      <ele>604</ele>
    </trkpt>
    <trkpt lat="-48.905718" lon="-72.77566">
      <ele>603</ele>
    </trkpt>
    <trkpt lat="-48.905795" lon="-72.775727">
      <ele>603</ele>
    </trkpt>
    <trkpt lat="-48.905878" lon="-72.775813">
      <ele>602</ele>
    </trkpt>
    <trkpt lat="-48.905956" lon="-72.775912">
      <ele>602</ele>
    </trkpt>
    <trkpt lat="-48.906026" lon="-72.77602">
      <ele>601</ele>
    </trkpt>
    <trkpt lat="-48.90609" lon="-72.776138">
      <ele>601</ele>
    </trkpt>
    <trkpt lat="-48.906144" lon="-72.776264">
      <ele>600</ele>
    </trkpt>
    <trkpt lat="-48.906222" lon="-72.776452">
      <ele>599</ele>
    </trkpt>
    <trkpt lat="-48.906305" lon="-72.776631">
      <ele>598</ele>
    </trkpt>
    <trkpt lat="-48.906396" lon="-72.776803">
      <ele>598</ele>
    </trkpt>
    <trkpt lat="-48.906493" lon="-72.776966">
      <ele>597</ele>
    </trkpt>
    <trkpt lat="-48.906578" lon="-72.777095">
      <ele>596</ele>
    </trkpt>
    <trkpt lat="-48.906666" lon="-72.777213">
      <ele>595</ele>
    </trkpt>
    <trkpt lat="-48.906758" lon="-72.777329">
      <ele>595</ele>
    </trkpt>
    <trkpt lat="-48.906853" lon="-72.777433">
      <ele>594</ele>
    </trkpt>
    <trkpt lat="-48.907036" lon="-72.777557">
      <ele>594</ele>
    </trkpt>
    <trkpt lat="-48.90722" lon="-72.777669">
      <ele>594</ele>
    </trkpt>
    <trkpt lat="-48.907392" lon="-72.777768">
      <ele>594</ele>
    </trkpt>
    <trkpt lat="-48.907565" lon="-72.777857">
      <ele>595</ele>
    </trkpt>
    <trkpt lat="-48.907623" lon="-72.777892">
      <ele>596</ele>
    </trkpt>
    <trkpt lat="-48.907678" lon="-72.777935">
      <ele>597</ele>
    </trkpt>
    <trkpt lat="-48.907731" lon="-72.777983">
      <ele>597</ele>
    </trkpt>
    <trkpt lat="-48.90778" lon="-72.778039">
      <ele>597</ele>
    </trkpt>
    <trkpt lat="-48.90783" lon="-72.778106">
      <ele>597</ele>
    </trkpt>
    <trkpt lat="-48.907881" lon="-72.778165">
      <ele>596</ele>
    </trkpt>
    <trkpt lat="-48.907937" lon="-72.778219">
      <ele>596</ele>
    </trkpt>
    <trkpt lat="-48.907995" lon="-72.778262">
      <ele>596</ele>
    </trkpt>
    <trkpt lat="-48.908055" lon="-72.778297">
      <ele>596</ele>
    </trkpt>
    <trkpt lat="-48.908131" lon="-72.778329">
      <ele>595</ele>
    </trkpt>
    <trkpt lat="-48.908207" lon="-72.778348">
      <ele>595</ele>
    </trkpt>
    <trkpt lat="-48.908284" lon="-72.778356">
      <ele>595</ele>
    </trkpt>
    <trkpt lat="-48.908367" lon="-72.778353">
      <ele>595</ele>
    </trkpt>
    <trkpt lat="-48.908448" lon="-72.77834">
      <ele>595</ele>
    </trkpt>
    <trkpt lat="-48.908529" lon="-72.778313">
      <ele>596</ele>
    </trkpt>
    <trkpt lat="-48.908775" lon="-72.778275">
      <ele>597</ele>
    </trkpt>
    <trkpt lat="-48.908972" lon="-72.778254">
      <ele>598</ele>
    </trkpt>
    <trkpt lat="-48.909169" lon="-72.778222">
      <ele>599</ele>
    </trkpt>
    <trkpt lat="-48.909247" lon="-72.778208">
      <ele>599</ele>
    </trkpt>
    <trkpt lat="-48.909325" lon="-72.778203">
      <ele>600</ele>
    </trkpt>
    <trkpt lat="-48.909402" lon="-72.778211">
      <ele>600</ele>
    </trkpt>
    <trkpt lat="-48.909478" lon="-72.778227">
      <ele>600</ele>
    </trkpt>
    <trkpt lat="-48.909554" lon="-72.778254">
      <ele>601</ele>
    </trkpt>
    <trkpt lat="-48.909624" lon="-72.778291">
      <ele>601</ele>
    </trkpt>
    <trkpt lat="-48.909693" lon="-72.778334">
      <ele>601</ele>
    </trkpt>
    <trkpt lat="-48.909829" lon="-72.77842">
      <ele>601</ele>
    </trkpt>
    <trkpt lat="-48.909956" lon="-72.778509">
      <ele>600</ele>
    </trkpt>
    <trkpt lat="-48.910081" lon="-72.7786">
      <ele>600</ele>
    </trkpt>
    <trkpt lat="-48.910335" lon="-72.778769">
      <ele>602</ele>
    </trkpt>
    <trkpt lat="-48.91059" lon="-72.778925">
      <ele>604</ele>
    </trkpt>
    <trkpt lat="-48.910834" lon="-72.779061">
      <ele>607</ele>
    </trkpt>
    <trkpt lat="-48.911077" lon="-72.779187">
      <ele>605</ele>
    </trkpt>
    <trkpt lat="-48.911244" lon="-72.779257">
      <ele>603</ele>
    </trkpt>
    <trkpt lat="-48.911414" lon="-72.779313">
      <ele>601</ele>
    </trkpt>
    <trkpt lat="-48.911585" lon="-72.779359">
      <ele>600</ele>
    </trkpt>
    <trkpt lat="-48.911756" lon="-72.779394">
      <ele>599</ele>
    </trkpt>
    <trkpt lat="-48.911925" lon="-72.779437">
      <ele>598</ele>
    </trkpt>
    <trkpt lat="-48.912092" lon="-72.779493">
      <ele>597</ele>
    </trkpt>
    <trkpt lat="-48.912186" lon="-72.779531">
      <ele>597</ele>
    </trkpt>
    <trkpt lat="-48.912276" lon="-72.779576">
      <ele>596</ele>
    </trkpt>
    <trkpt lat="-48.912364" lon="-72.779633">
      <ele>595</ele>
    </trkpt>
    <trkpt lat="-48.912454" lon="-72.779702">
      <ele>594</ele>
    </trkpt>
    <trkpt lat="-48.912538" lon="-72.779785">
      <ele>593</ele>
    </trkpt>
    <trkpt lat="-48.912618" lon="-72.779874">
      <ele>592</ele>
    </trkpt>
    <trkpt lat="-48.912893" lon="-72.780169">
      <ele>591</ele>
    </trkpt>
    <trkpt lat="-48.912937" lon="-72.780217">
      <ele>590</ele>
    </trkpt>
    <trkpt lat="-48.912982" lon="-72.780255">
      <ele>590</ele>
    </trkpt>
    <trkpt lat="-48.913034" lon="-72.780282">
      <ele>590</ele>
    </trkpt>
    <trkpt lat="-48.913086" lon="-72.780298">
      <ele>590</ele>
    </trkpt>
    <trkpt lat="-48.913139" lon="-72.7803">
      <ele>590</ele>
    </trkpt>
    <trkpt lat="-48.913192" lon="-72.78029">
      <ele>590</ele>
    </trkpt>
    <trkpt lat="-48.913243" lon="-72.780268">
      <ele>590</ele>
    </trkpt>
    <trkpt lat="-48.913291" lon="-72.780233">
      <ele>591</ele>
    </trkpt>
    <trkpt lat="-48.913316" lon="-72.780212">
      <ele>591</ele>
    </trkpt>
    <trkpt lat="-48.91334" lon="-72.780185">
      <ele>592</ele>
    </trkpt>
    <trkpt lat="-48.913393" lon="-72.780145">
      <ele>592</ele>
    </trkpt>
    <trkpt lat="-48.913448" lon="-72.780115">
      <ele>592</ele>
    </trkpt>
    <trkpt lat="-48.913504" lon="-72.780097">
      <ele>592</ele>
    </trkpt>
    <trkpt lat="-48.913562" lon="-72.780089">
      <ele>592</ele>
    </trkpt>
    <trkpt lat="-48.91361" lon="-72.780091">
      <ele>591</ele>
    </trkpt>
    <trkpt lat="-48.913658" lon="-72.780099">
      <ele>591</ele>
    </trkpt>
    <trkpt lat="-48.913751" lon="-72.780102">
      <ele>590</ele>
    </trkpt>
    <trkpt lat="-48.913844" lon="-72.780099">
      <ele>589</ele>
    </trkpt>
    <trkpt lat="-48.913917" lon="-72.780094">
      <ele>589</ele>
    </trkpt>
    <trkpt lat="-48.913987" lon="-72.780083">
      <ele>588</ele>
    </trkpt>
    <trkpt lat="-48.914128" lon="-72.780056">
      <ele>587</ele>
    </trkpt>
    <trkpt lat="-48.914267" lon="-72.780019">
      <ele>586</ele>
    </trkpt>
    <trkpt lat="-48.914347" lon="-72.779995">
      <ele>586</ele>
    </trkpt>
    <trkpt lat="-48.914426" lon="-72.779981">
      <ele>586</ele>
    </trkpt>
    <trkpt lat="-48.914505" lon="-72.779981">
      <ele>586</ele>
    </trkpt>
    <trkpt lat="-48.914585" lon="-72.779989">
      <ele>586</ele>
    </trkpt>
    <trkpt lat="-48.914662" lon="-72.780008">
      <ele>586</ele>
    </trkpt>
    <trkpt lat="-48.914717" lon="-72.78003">
      <ele>585</ele>
    </trkpt>
    <trkpt lat="-48.91477" lon="-72.780056">
      <ele>586</ele>
    </trkpt>
    <trkpt lat="-48.914879" lon="-72.780089">
      <ele>586</ele>
    </trkpt>
    <trkpt lat="-48.91499" lon="-72.78011">
      <ele>587</ele>
    </trkpt>
    <trkpt lat="-48.915091" lon="-72.780121">
      <ele>588</ele>
    </trkpt>
    <trkpt lat="-48.915191" lon="-72.780118">
      <ele>589</ele>
    </trkpt>
    <trkpt lat="-48.915392" lon="-72.780115">
      <ele>589</ele>
    </trkpt>
    <trkpt lat="-48.915552" lon="-72.780107">
      <ele>589</ele>
    </trkpt>
    <trkpt lat="-48.915711" lon="-72.780094">
      <ele>588</ele>
    </trkpt>
    <trkpt lat="-48.91603" lon="-72.780062">
      <ele>588</ele>
    </trkpt>
    <trkpt lat="-48.916097" lon="-72.780054">
      <ele>589</ele>
    </trkpt>
    <trkpt lat="-48.916166" lon="-72.780059">
      <ele>588</ele>
    </trkpt>
    <trkpt lat="-48.916231" lon="-72.780072">
      <ele>588</ele>
    </trkpt>
    <trkpt lat="-48.916291" lon="-72.780097">
      <ele>587</ele>
    </trkpt>
    <trkpt lat="-48.916347" lon="-72.780129">
      <ele>586</ele>
    </trkpt>
    <trkpt lat="-48.9164" lon="-72.780169">
      <ele>585</ele>
    </trkpt>
    <trkpt lat="-48.916781" lon="-72.780459">
      <ele>581</ele>
    </trkpt>
    <trkpt lat="-48.916864" lon="-72.78051">
      <ele>580</ele>
    </trkpt>
    <trkpt lat="-48.916948" lon="-72.78055">
      <ele>580</ele>
    </trkpt>
    <trkpt lat="-48.917037" lon="-72.780582">
      <ele>580</ele>
    </trkpt>
    <trkpt lat="-48.917123" lon="-72.780604">
      <ele>580</ele>
    </trkpt>
    <trkpt lat="-48.917218" lon="-72.780617">
      <ele>581</ele>
    </trkpt>
    <trkpt lat="-48.917313" lon="-72.780622">
      <ele>581</ele>
    </trkpt>
    <trkpt lat="-48.917504" lon="-72.780641">
      <ele>582</ele>
    </trkpt>
    <trkpt lat="-48.917703" lon="-72.780668">
      <ele>584</ele>
    </trkpt>
    <trkpt lat="-48.917902" lon="-72.780705">
      <ele>585</ele>
    </trkpt>
    <trkpt lat="-48.918099" lon="-72.780754">
      <ele>586</ele>
    </trkpt>
    <trkpt lat="-48.91824" lon="-72.780797">
      <ele>586</ele>
    </trkpt>
    <trkpt lat="-48.918383" lon="-72.780829">
      <ele>586</ele>
    </trkpt>
    <trkpt lat="-48.918528" lon="-72.78085">
      <ele>586</ele>
    </trkpt>
    <trkpt lat="-48.918671" lon="-72.780861">
      <ele>587</ele>
    </trkpt>
    <trkpt lat="-48.918813" lon="-72.780864">
      <ele>586</ele>
    </trkpt>
    <trkpt lat="-48.918956" lon="-72.780856">
      <ele>587</ele>
    </trkpt>
    <trkpt lat="-48.919242" lon="-72.78085">
      <ele>586</ele>
    </trkpt>
    <trkpt lat="-48.919532" lon="-72.780853">
      <ele>586</ele>
    </trkpt>
    <trkpt lat="-48.919821" lon="-72.780856">
      <ele>586</ele>
    </trkpt>
    <trkpt lat="-48.91988" lon="-72.780861">
      <ele>585</ele>
    </trkpt>
    <trkpt lat="-48.919936" lon="-72.780856">
      <ele>586</ele>
    </trkpt>
    <trkpt lat="-48.919984" lon="-72.780845">
      <ele>586</ele>
    </trkpt>
    <trkpt lat="-48.920029" lon="-72.780829">
      <ele>586</ele>
    </trkpt>
    <trkpt lat="-48.920074" lon="-72.780805">
      <ele>587</ele>
    </trkpt>
    <trkpt lat="-48.920118" lon="-72.780794">
      <ele>587</ele>
    </trkpt>
    <trkpt lat="-48.920162" lon="-72.780797">
      <ele>587</ele>
    </trkpt>
    <trkpt lat="-48.920206" lon="-72.780807">
      <ele>587</ele>
    </trkpt>
    <trkpt lat="-48.920248" lon="-72.780832">
      <ele>587</ele>
    </trkpt>
    <trkpt lat="-48.920287" lon="-72.780864">
      <ele>587</ele>
    </trkpt>
    <trkpt lat="-48.92032" lon="-72.780907">
      <ele>586</ele>
    </trkpt>
    <trkpt lat="-48.92043" lon="-72.781073">
      <ele>585</ele>
    </trkpt>
    <trkpt lat="-48.920541" lon="-72.781234">
      <ele>585</ele>
    </trkpt>
    <trkpt lat="-48.92065" lon="-72.781381">
      <ele>586</ele>
    </trkpt>
    <trkpt lat="-48.920763" lon="-72.781524">
      <ele>588</ele>
    </trkpt>
    <trkpt lat="-48.920877" lon="-72.78166">
      <ele>590</ele>
    </trkpt>
    <trkpt lat="-48.921027" lon="-72.781835">
      <ele>592</ele>
    </trkpt>
    <trkpt lat="-48.921173" lon="-72.782014">
      <ele>592</ele>
    </trkpt>
    <trkpt lat="-48.921304" lon="-72.782181">
      <ele>591</ele>
    </trkpt>
    <trkpt lat="-48.921431" lon="-72.78235">
      <ele>590</ele>
    </trkpt>
    <trkpt lat="-48.921575" lon="-72.782532">
      <ele>592</ele>
    </trkpt>
    <trkpt lat="-48.92172" lon="-72.782706">
      <ele>594</ele>
    </trkpt>
    <trkpt lat="-48.92203" lon="-72.783071">
      <ele>600</ele>
    </trkpt>
    <trkpt lat="-48.922176" lon="-72.783224">
      <ele>603</ele>
    </trkpt>
    <trkpt lat="-48.922315" lon="-72.78339">
      <ele>605</ele>
    </trkpt>
    <trkpt lat="-48.922449" lon="-72.783565">
      <ele>606</ele>
    </trkpt>
    <trkpt lat="-48.922567" lon="-72.783736">
      <ele>605</ele>
    </trkpt>
    <trkpt lat="-48.922622" lon="-72.783828">
      <ele>605</ele>
    </trkpt>
    <trkpt lat="-48.922678" lon="-72.783913">
      <ele>604</ele>
    </trkpt>
    <trkpt lat="-48.922768" lon="-72.784034">
      <ele>604</ele>
    </trkpt>
    <trkpt lat="-48.922862" lon="-72.784147">
      <ele>604</ele>
    </trkpt>
    <trkpt lat="-48.92296" lon="-72.784246">
      <ele>603</ele>
    </trkpt>
    <trkpt lat="-48.923063" lon="-72.784337">
      <ele>603</ele>
    </trkpt>
    <trkpt lat="-48.923359" lon="-72.784589">
      <ele>600</ele>
    </trkpt>
    <trkpt lat="-48.923424" lon="-72.784632">
      <ele>600</ele>
    </trkpt>
    <trkpt lat="-48.923484" lon="-72.784683">
      <ele>600</ele>
    </trkpt>
    <trkpt lat="-48.923542" lon="-72.78474">
      <ele>600</ele>
    </trkpt>
    <trkpt lat="-48.923607" lon="-72.784817">
      <ele>601</ele>
    </trkpt>
    <trkpt lat="-48.923665" lon="-72.784903">
      <ele>601</ele>
    </trkpt>
    <trkpt lat="-48.923718" lon="-72.784997">
      <ele>602</ele>
    </trkpt>
    <trkpt lat="-48.92384" lon="-72.785198">
      <ele>603</ele>
    </trkpt>
    <trkpt lat="-48.923967" lon="-72.785389">
      <ele>603</ele>
    </trkpt>
    <trkpt lat="-48.924032" lon="-72.785485">
      <ele>603</ele>
    </trkpt>
    <trkpt lat="-48.924099" lon="-72.785571">
      <ele>603</ele>
    </trkpt>
    <trkpt lat="-48.924192" lon="-72.785676">
      <ele>604</ele>
    </trkpt>
    <trkpt lat="-48.924289" lon="-72.785764">
      <ele>604</ele>
    </trkpt>
    <trkpt lat="-48.924391" lon="-72.785845">
      <ele>604</ele>
    </trkpt>
    <trkpt lat="-48.924497" lon="-72.785909">
      <ele>603</ele>
    </trkpt>
    <trkpt lat="-48.924656" lon="-72.785973">
      <ele>601</ele>
    </trkpt>
    <trkpt lat="-48.924811" lon="-72.786048">
      <ele>601</ele>
    </trkpt>
    <trkpt lat="-48.924962" lon="-72.786134">
      <ele>599</ele>
    </trkpt>
    <trkpt lat="-48.925088" lon="-72.786215">
      <ele>599</ele>
    </trkpt>
    <trkpt lat="-48.925209" lon="-72.786303">
      <ele>600</ele>
    </trkpt>
    <trkpt lat="-48.925329" lon="-72.786397">
      <ele>599</ele>
    </trkpt>
    <trkpt lat="-48.925445" lon="-72.786499">
      <ele>599</ele>
    </trkpt>
    <trkpt lat="-48.925671" lon="-72.786684">
      <ele>597</ele>
    </trkpt>
    <trkpt lat="-48.925745" lon="-72.786751">
      <ele>597</ele>
    </trkpt>
    <trkpt lat="-48.925821" lon="-72.78681">
      <ele>597</ele>
    </trkpt>
    <trkpt lat="-48.9259" lon="-72.786858">
      <ele>598</ele>
    </trkpt>
    <trkpt lat="-48.925992" lon="-72.786901">
      <ele>599</ele>
    </trkpt>
    <trkpt lat="-48.926085" lon="-72.786934">
      <ele>600</ele>
    </trkpt>
    <trkpt lat="-48.926178" lon="-72.78695">
      <ele>601</ele>
    </trkpt>
    <trkpt lat="-48.92626" lon="-72.786955">
      <ele>603</ele>
    </trkpt>
    <trkpt lat="-48.926339" lon="-72.786968">
      <ele>604</ele>
    </trkpt>
    <trkpt lat="-48.926418" lon="-72.78699">
      <ele>604</ele>
    </trkpt>
    <trkpt lat="-48.926496" lon="-72.787019">
      <ele>604</ele>
    </trkpt>
    <trkpt lat="-48.926593" lon="-72.787068">
      <ele>604</ele>
    </trkpt>
    <trkpt lat="-48.926686" lon="-72.787129">
      <ele>604</ele>
    </trkpt>
    <trkpt lat="-48.926728" lon="-72.78717">
      <ele>604</ele>
    </trkpt>
    <trkpt lat="-48.926774" lon="-72.787202">
      <ele>604</ele>
    </trkpt>
    <trkpt lat="-48.926834" lon="-72.787237">
      <ele>603</ele>
    </trkpt>
    <trkpt lat="-48.926896" lon="-72.787263">
      <ele>603</ele>
    </trkpt>
    <trkpt lat="-48.926957" lon="-72.78728">
      <ele>603</ele>
    </trkpt>
    <trkpt lat="-48.927021" lon="-72.787288">
      <ele>604</ele>
    </trkpt>
    <trkpt lat="-48.927123" lon="-72.787312">
      <ele>604</ele>
    </trkpt>
    <trkpt lat="-48.927223" lon="-72.787349">
      <ele>604</ele>
    </trkpt>
    <trkpt lat="-48.927322" lon="-72.7874">
      <ele>605</ele>
    </trkpt>
    <trkpt lat="-48.927416" lon="-72.787465">
      <ele>605</ele>
    </trkpt>
    <trkpt lat="-48.927592" lon="-72.787575">
      <ele>605</ele>
    </trkpt>
    <trkpt lat="-48.927648" lon="-72.787615">
      <ele>605</ele>
    </trkpt>
    <trkpt lat="-48.927708" lon="-72.787647">
      <ele>605</ele>
    </trkpt>
    <trkpt lat="-48.927768" lon="-72.787674">
      <ele>605</ele>
    </trkpt>
    <trkpt lat="-48.92786" lon="-72.787703">
      <ele>606</ele>
    </trkpt>
    <trkpt lat="-48.927953" lon="-72.787717">
      <ele>607</ele>
    </trkpt>
    <trkpt lat="-48.928046" lon="-72.787717">
      <ele>608</ele>
    </trkpt>
    <trkpt lat="-48.928138" lon="-72.787701">
      <ele>609</ele>
    </trkpt>
    <trkpt lat="-48.92823" lon="-72.787695">
      <ele>609</ele>
    </trkpt>
    <trkpt lat="-48.92832" lon="-72.787701">
      <ele>609</ele>
    </trkpt>
    <trkpt lat="-48.928409" lon="-72.787711">
      <ele>610</ele>
    </trkpt>
    <trkpt lat="-48.928499" lon="-72.787736">
      <ele>610</ele>
    </trkpt>
    <trkpt lat="-48.928586" lon="-72.787768">
      <ele>610</ele>
    </trkpt>
    <trkpt lat="-48.928672" lon="-72.787811">
      <ele>610</ele>
    </trkpt>
    <trkpt lat="-48.928755" lon="-72.787862">
      <ele>609</ele>
    </trkpt>
    <trkpt lat="-48.928894" lon="-72.787996">
      <ele>608</ele>
    </trkpt>
    <trkpt lat="-48.929037" lon="-72.788122">
      <ele>607</ele>
    </trkpt>
    <trkpt lat="-48.929181" lon="-72.788237">
      <ele>606</ele>
    </trkpt>
    <trkpt lat="-48.929313" lon="-72.788334">
      <ele>606</ele>
    </trkpt>
    <trkpt lat="-48.929446" lon="-72.788425">
      <ele>606</ele>
    </trkpt>
    <trkpt lat="-48.92958" lon="-72.788505">
      <ele>608</ele>
    </trkpt>
    <trkpt lat="-48.929714" lon="-72.788597">
      <ele>609</ele>
    </trkpt>
    <trkpt lat="-48.929844" lon="-72.788696">
      <ele>610</ele>
    </trkpt>
    <trkpt lat="-48.929973" lon="-72.7888">
      <ele>612</ele>
    </trkpt>
    <trkpt lat="-48.930098" lon="-72.788913">
      <ele>612</ele>
    </trkpt>
    <trkpt lat="-48.930202" lon="-72.788983">
      <ele>613</ele>
    </trkpt>
    <trkpt lat="-48.9303" lon="-72.789061">
      <ele>614</ele>
    </trkpt>
    <trkpt lat="-48.930397" lon="-72.789146">
      <ele>615</ele>
    </trkpt>
    <trkpt lat="-48.930491" lon="-72.78924">
      <ele>617</ele>
    </trkpt>
    <trkpt lat="-48.93058" lon="-72.789342">
      <ele>618</ele>
    </trkpt>
    <trkpt lat="-48.93067" lon="-72.789458">
      <ele>620</ele>
    </trkpt>
    <trkpt lat="-48.930755" lon="-72.789578">
      <ele>620</ele>
    </trkpt>
    <trkpt lat="-48.930834" lon="-72.789707">
      <ele>621</ele>
    </trkpt>
    <trkpt lat="-48.930928" lon="-72.789841">
      <ele>621</ele>
    </trkpt>
    <trkpt lat="-48.931023" lon="-72.789967">
      <ele>621</ele>
    </trkpt>
    <trkpt lat="-48.931125" lon="-72.790085">
      <ele>620</ele>
    </trkpt>
    <trkpt lat="-48.931229" lon="-72.790195">
      <ele>620</ele>
    </trkpt>
    <trkpt lat="-48.931446" lon="-72.790412">
      <ele>619</ele>
    </trkpt>
    <trkpt lat="-48.931668" lon="-72.790616">
      <ele>616</ele>
    </trkpt>
    <trkpt lat="-48.931782" lon="-72.79071">
      <ele>615</ele>
    </trkpt>
    <trkpt lat="-48.931891" lon="-72.790812">
      <ele>613</ele>
    </trkpt>
    <trkpt lat="-48.931987" lon="-72.790914">
      <ele>613</ele>
    </trkpt>
    <trkpt lat="-48.932078" lon="-72.791021">
      <ele>613</ele>
    </trkpt>
    <trkpt lat="-48.932165" lon="-72.791139">
      <ele>613</ele>
    </trkpt>
    <trkpt lat="-48.932247" lon="-72.791263">
      <ele>614</ele>
    </trkpt>
    <trkpt lat="-48.93229" lon="-72.791324">
      <ele>615</ele>
    </trkpt>
    <trkpt lat="-48.932325" lon="-72.791391">
      <ele>616</ele>
    </trkpt>
    <trkpt lat="-48.932358" lon="-72.791469">
      <ele>617</ele>
    </trkpt>
    <trkpt lat="-48.932385" lon="-72.79155">
      <ele>617</ele>
    </trkpt>
    <trkpt lat="-48.932406" lon="-72.791633">
      <ele>617</ele>
    </trkpt>
    <trkpt lat="-48.93242" lon="-72.791721">
      <ele>617</ele>
    </trkpt>
    <trkpt lat="-48.932427" lon="-72.79181">
      <ele>616</ele>
    </trkpt>
    <trkpt lat="-48.932434" lon="-72.792105">
      <ele>616</ele>
    </trkpt>
    <trkpt lat="-48.932448" lon="-72.792397">
      <ele>616</ele>
    </trkpt>
    <trkpt lat="-48.932469" lon="-72.79269">
      <ele>618</ele>
    </trkpt>
    <trkpt lat="-48.932494" lon="-72.792934">
      <ele>618</ele>
    </trkpt>
    <trkpt lat="-48.932522" lon="-72.793178">
      <ele>618</ele>
    </trkpt>
    <trkpt lat="-48.93254" lon="-72.793298">
      <ele>618</ele>
    </trkpt>
    <trkpt lat="-48.932554" lon="-72.793419">
      <ele>618</ele>
    </trkpt>
    <trkpt lat="-48.932572" lon="-72.793591">
      <ele>617</ele>
    </trkpt>
    <trkpt lat="-48.93258" lon="-72.793677">
      <ele>617</ele>
    </trkpt>
    <trkpt lat="-48.932582" lon="-72.793762">
      <ele>617</ele>
    </trkpt>
    <trkpt lat="-48.932579" lon="-72.793846">
      <ele>616</ele>
    </trkpt>
    <trkpt lat="-48.932566" lon="-72.793926">
      <ele>616</ele>
    </trkpt>
    <trkpt lat="-48.932551" lon="-72.794004">
      <ele>615</ele>
    </trkpt>
    <trkpt lat="-48.932526" lon="-72.794079">
      <ele>615</ele>
    </trkpt>
    <trkpt lat="-48.93245" lon="-72.794205">
      <ele>613</ele>
    </trkpt>
    <trkpt lat="-48.932376" lon="-72.794331">
      <ele>611</ele>
    </trkpt>
    <trkpt lat="-48.932272" lon="-72.794524">
      <ele>608</ele>
    </trkpt>
    <trkpt lat="-48.93217" lon="-72.794723">
      <ele>604</ele>
    </trkpt>
    <trkpt lat="-48.932091" lon="-72.794876">
      <ele>601</ele>
    </trkpt>
    <trkpt lat="-48.932004" lon="-72.795109">
      <ele>598</ele>
    </trkpt>
    <trkpt lat="-48.931988" lon="-72.795184">
      <ele>598</ele>
    </trkpt>
    <trkpt lat="-48.931978" lon="-72.795259">
      <ele>597</ele>
    </trkpt>
    <trkpt lat="-48.931976" lon="-72.795337">
      <ele>597</ele>
    </trkpt>
    <trkpt lat="-48.93198" lon="-72.795415">
      <ele>597</ele>
    </trkpt>
    <trkpt lat="-48.931994" lon="-72.795501">
      <ele>598</ele>
    </trkpt>
    <trkpt lat="-48.932018" lon="-72.795581">
      <ele>598</ele>
    </trkpt>
    <trkpt lat="-48.932048" lon="-72.795653">
      <ele>599</ele>
    </trkpt>
    <trkpt lat="-48.932087" lon="-72.795718">
      <ele>599</ele>
    </trkpt>
    <trkpt lat="-48.932179" lon="-72.79586">
      <ele>601</ele>
    </trkpt>
    <trkpt lat="-48.932272" lon="-72.795997">
      <ele>601</ele>
    </trkpt>
    <trkpt lat="-48.932371" lon="-72.796123">
      <ele>602</ele>
    </trkpt>
    <trkpt lat="-48.932468" lon="-72.796238">
      <ele>603</ele>
    </trkpt>
    <trkpt lat="-48.932568" lon="-72.796345">
      <ele>603</ele>
    </trkpt>
    <trkpt lat="-48.932769" lon="-72.796557">
      <ele>604</ele>
    </trkpt>
    <trkpt lat="-48.932898" lon="-72.796686">
      <ele>604</ele>
    </trkpt>
    <trkpt lat="-48.933021" lon="-72.796823">
      <ele>603</ele>
    </trkpt>
    <trkpt lat="-48.933053" lon="-72.797204">
      <ele>600</ele>
    </trkpt>
    <trkpt lat="-48.933017" lon="-72.797531">
      <ele>599</ele>
    </trkpt>
    <trkpt lat="-48.932762" lon="-72.798231">
      <ele>602</ele>
    </trkpt>
    <trkpt lat="-48.932912" lon="-72.798687">
      <ele>604</ele>
    </trkpt>
    <trkpt lat="-48.935416" lon="-72.803255">
      <ele>613</ele>
    </trkpt>
    <trkpt lat="-48.935791" lon="-72.803652">
      <ele>613</ele>
    </trkpt>
    <trkpt lat="-48.935814" lon="-72.803764">
      <ele>613</ele>
    </trkpt>
    <trkpt lat="-48.935868" lon="-72.803831">
      <ele>613</ele>
    </trkpt>
    <trkpt lat="-48.93596" lon="-72.803866">
      <ele>613</ele>
    </trkpt>
    <trkpt lat="-48.936008" lon="-72.803874">
      <ele>613</ele>
    </trkpt>
    <trkpt lat="-48.93605" lon="-72.803872">
      <ele>613</ele>
    </trkpt>
    <trkpt lat="-48.936154" lon="-72.803834">
      <ele>613</ele>
    </trkpt>
    <trkpt lat="-48.936351" lon="-72.803681">
      <ele>614</ele>
    </trkpt>
    <trkpt lat="-48.936478" lon="-72.803638">
      <ele>615</ele>
    </trkpt>
    <trkpt lat="-48.936605" lon="-72.80362">
      <ele>616</ele>
    </trkpt>
    <trkpt lat="-48.936725" lon="-72.803638">
      <ele>616</ele>
    </trkpt>
    <trkpt lat="-48.936966" lon="-72.803681">
      <ele>617</ele>
    </trkpt>
    <trkpt lat="-48.937072" lon="-72.803625">
      <ele>617</ele>
    </trkpt>
    <trkpt lat="-48.937304" lon="-72.803376">
      <ele>615</ele>
    </trkpt>
    <trkpt lat="-48.937586" lon="-72.80292">
      <ele>613</ele>
    </trkpt>
    <trkpt lat="-48.937815" lon="-72.802466">
      <ele>613</ele>
    </trkpt>
    <trkpt lat="-48.937976" lon="-72.802209">
      <ele>612</ele>
    </trkpt>
    <trkpt lat="-48.938101" lon="-72.802112">
      <ele>612</ele>
    </trkpt>
    <trkpt lat="-48.938569" lon="-72.802042">
      <ele>611</ele>
    </trkpt>
    <trkpt lat="-48.938721" lon="-72.801973">
      <ele>611</ele>
    </trkpt>
    <trkpt lat="-48.938827" lon="-72.801898">
      <ele>611</ele>
    </trkpt>
    <trkpt lat="-48.938922" lon="-72.801798">
      <ele>612</ele>
    </trkpt>
    <trkpt lat="-48.938985" lon="-72.801683">
      <ele>613</ele>
    </trkpt>
    <trkpt lat="-48.939038" lon="-72.801466">
      <ele>615</ele>
    </trkpt>
    <trkpt lat="-48.939075" lon="-72.801375">
      <ele>616</ele>
    </trkpt>
    <trkpt lat="-48.939144" lon="-72.801286">
      <ele>617</ele>
    </trkpt>
    <trkpt lat="-48.939244" lon="-72.801219">
      <ele>617</ele>
    </trkpt>
    <trkpt lat="-48.939745" lon="-72.801326">
      <ele>615</ele>
    </trkpt>
    <trkpt lat="-48.939894" lon="-72.801321">
      <ele>615</ele>
    </trkpt>
    <trkpt lat="-48.940477" lon="-72.801176">
      <ele>616</ele>
    </trkpt>
    <trkpt lat="-48.940684" lon="-72.801171">
      <ele>618</ele>
    </trkpt>
    <trkpt lat="-48.94114" lon="-72.801278">
      <ele>623</ele>
    </trkpt>
    <trkpt lat="-48.941424" lon="-72.801375">
      <ele>628</ele>
    </trkpt>
    <trkpt lat="-48.941497" lon="-72.801415">
      <ele>630</ele>
    </trkpt>
    <trkpt lat="-48.941587" lon="-72.801503">
      <ele>632</ele>
    </trkpt>
    <trkpt lat="-48.941637" lon="-72.801581">
      <ele>633</ele>
    </trkpt>
    <trkpt lat="-48.94179" lon="-72.801927">
      <ele>631</ele>
    </trkpt>
    <trkpt lat="-48.94189" lon="-72.8023">
      <ele>631</ele>
    </trkpt>
    <trkpt lat="-48.942028" lon="-72.802678">
      <ele>634</ele>
    </trkpt>
    <trkpt lat="-48.942104" lon="-72.802861">
      <ele>635</ele>
    </trkpt>
    <trkpt lat="-48.942355" lon="-72.803354">
      <ele>637</ele>
    </trkpt>
    <trkpt lat="-48.942597" lon="-72.803738">
      <ele>636</ele>
    </trkpt>
    <trkpt lat="-48.942835" lon="-72.804022">
      <ele>634</ele>
    </trkpt>
    <trkpt lat="-48.943074" lon="-72.804258">
      <ele>634</ele>
    </trkpt>
    <trkpt lat="-48.943344" lon="-72.804499">
      <ele>636</ele>
    </trkpt>
    <trkpt lat="-48.943679" lon="-72.804754">
      <ele>634</ele>
    </trkpt>
    <trkpt lat="-48.943856" lon="-72.804931">
      <ele>630</ele>
    </trkpt>
    <trkpt lat="-48.944031" lon="-72.805071">
      <ele>629</ele>
    </trkpt>
    <trkpt lat="-48.944963" lon="-72.805612">
      <ele>640</ele>
    </trkpt>
    <trkpt lat="-48.94534" lon="-72.805913">
      <ele>643</ele>
    </trkpt>
    <trkpt lat="-48.945511" lon="-72.806082">
      <ele>644</ele>
    </trkpt>
    <trkpt lat="-48.946122" lon="-72.806785">
      <ele>641</ele>
    </trkpt>
    <trkpt lat="-48.946453" lon="-72.807219">
      <ele>641</ele>
    </trkpt>
    <trkpt lat="-48.946629" lon="-72.807402">
      <ele>641</ele>
    </trkpt>
    <trkpt lat="-48.947052" lon="-72.807769">
      <ele>643</ele>
    </trkpt>
    <trkpt lat="-48.947431" lon="-72.807997">
      <ele>641</ele>
    </trkpt>
    <trkpt lat="-48.947787" lon="-72.808171">
      <ele>640</ele>
    </trkpt>
    <trkpt lat="-48.948132" lon="-72.808348">
      <ele>641</ele>
    </trkpt>
    <trkpt lat="-48.948311" lon="-72.808576">
      <ele>641</ele>
    </trkpt>
    <trkpt lat="-48.948655" lon="-72.808869">
      <ele>644</ele>
    </trkpt>
    <trkpt lat="-48.949906" lon="-72.809826">
      <ele>654</ele>
    </trkpt>
    <trkpt lat="-48.950154" lon="-72.810019">
      <ele>655</ele>
    </trkpt>
    <trkpt lat="-48.950261" lon="-72.810062">
      <ele>656</ele>
    </trkpt>
    <trkpt lat="-48.950462" lon="-72.810097">
      <ele>658</ele>
    </trkpt>
    <trkpt lat="-48.950624" lon="-72.8101">
      <ele>660</ele>
    </trkpt>
    <trkpt lat="-48.950718" lon="-72.810127">
      <ele>661</ele>
    </trkpt>
    <trkpt lat="-48.95079" lon="-72.810215">
      <ele>660</ele>
    </trkpt>
    <trkpt lat="-48.951385" lon="-72.811492">
      <ele>655</ele>
    </trkpt>
    <trkpt lat="-48.951627" lon="-72.811765">
      <ele>655</ele>
    </trkpt>
    <trkpt lat="-48.951806" lon="-72.811902">
      <ele>655</ele>
    </trkpt>
    <trkpt lat="-48.952828" lon="-72.812339">
      <ele>665</ele>
    </trkpt>
    <trkpt lat="-48.953654" lon="-72.81282">
      <ele>666</ele>
    </trkpt>
    <trkpt lat="-48.953797" lon="-72.812857">
      <ele>667</ele>
    </trkpt>
    <trkpt lat="-48.953955" lon="-72.812852">
      <ele>669</ele>
    </trkpt>
    <trkpt lat="-48.954119" lon="-72.812852">
      <ele>670</ele>
    </trkpt>
    <trkpt lat="-48.954276" lon="-72.812758">
      <ele>671</ele>
    </trkpt>
    <trkpt lat="-48.954385" lon="-72.81275">
      <ele>670</ele>
    </trkpt>
    <trkpt lat="-48.955137" lon="-72.81319">
      <ele>674</ele>
    </trkpt>
    <trkpt lat="-48.955625" lon="-72.813361">
      <ele>677</ele>
    </trkpt>
    <trkpt lat="-48.95585" lon="-72.813391">
      <ele>677</ele>
    </trkpt>
    <trkpt lat="-48.956009" lon="-72.813361">
      <ele>678</ele>
    </trkpt>
    <trkpt lat="-48.95607" lon="-72.813372">
      <ele>678</ele>
    </trkpt>
    <trkpt lat="-48.956121" lon="-72.813404">
      <ele>678</ele>
    </trkpt>
    <trkpt lat="-48.956187" lon="-72.813517">
      <ele>678</ele>
    </trkpt>
    <trkpt lat="-48.956386" lon="-72.813774">
      <ele>678</ele>
    </trkpt>
    <trkpt lat="-48.956516" lon="-72.813906">
      <ele>678</ele>
    </trkpt>
    <trkpt lat="-48.957037" lon="-72.814196">
      <ele>678</ele>
    </trkpt>
    <trkpt lat="-48.957354" lon="-72.814359">
      <ele>679</ele>
    </trkpt>
    <trkpt lat="-48.957842" lon="-72.814705">
      <ele>680</ele>
    </trkpt>
    <trkpt lat="-48.958404" lon="-72.814877">
      <ele>686</ele>
    </trkpt>
    <trkpt lat="-48.958686" lon="-72.815073">
      <ele>686</ele>
    </trkpt>
    <trkpt lat="-48.959052" lon="-72.815314">
      <ele>687</ele>
    </trkpt>
    <trkpt lat="-48.959189" lon="-72.815378">
      <ele>688</ele>
    </trkpt>
    <trkpt lat="-48.959286" lon="-72.815392">
      <ele>689</ele>
    </trkpt>
    <trkpt lat="-48.959818" lon="-72.815464">
      <ele>693</ele>
    </trkpt>
    <trkpt lat="-48.959901" lon="-72.815491">
      <ele>693</ele>
    </trkpt>
    <trkpt lat="-48.959941" lon="-72.815563">
      <ele>693</ele>
    </trkpt>
    <trkpt lat="-48.960035" lon="-72.81588">
      <ele>691</ele>
    </trkpt>
    <trkpt lat="-48.960218" lon="-72.816017">
      <ele>690</ele>
    </trkpt>
    <trkpt lat="-48.960415" lon="-72.81617">
      <ele>689</ele>
    </trkpt>
    <trkpt lat="-48.96066" lon="-72.816215">
      <ele>689</ele>
    </trkpt>
    <trkpt lat="-48.960781" lon="-72.816301">
      <ele>689</ele>
    </trkpt>
    <trkpt lat="-48.960915" lon="-72.816481">
      <ele>687</ele>
    </trkpt>
    <trkpt lat="-48.960987" lon="-72.816521">
      <ele>687</ele>
    </trkpt>
    <trkpt lat="-48.961414" lon="-72.816473">
      <ele>688</ele>
    </trkpt>
    <trkpt lat="-48.961727" lon="-72.816658">
      <ele>688</ele>
    </trkpt>
    <trkpt lat="-48.961903" lon="-72.816824">
      <ele>688</ele>
    </trkpt>
    <trkpt lat="-48.962016" lon="-72.816854">
      <ele>689</ele>
    </trkpt>
    <trkpt lat="-48.962201" lon="-72.816797">
      <ele>690</ele>
    </trkpt>
    <trkpt lat="-48.962629" lon="-72.816652">
      <ele>693</ele>
    </trkpt>
    <trkpt lat="-48.962761" lon="-72.816513">
      <ele>694</ele>
    </trkpt>
    <trkpt lat="-48.962851" lon="-72.816272">
      <ele>696</ele>
    </trkpt>
    <trkpt lat="-48.963307" lon="-72.815816">
      <ele>701</ele>
    </trkpt>
    <trkpt lat="-48.963455" lon="-72.815732">
      <ele>703</ele>
    </trkpt>
    <trkpt lat="-48.963624" lon="-72.815708">
      <ele>704</ele>
    </trkpt>
    <trkpt lat="-48.963705" lon="-72.815665">
      <ele>705</ele>
    </trkpt>
    <trkpt lat="-48.963886" lon="-72.815741">
      <ele>704</ele>
    </trkpt>
    <trkpt lat="-48.964039" lon="-72.815888">
      <ele>701</ele>
    </trkpt>
    <trkpt lat="-48.964413" lon="-72.815987">
      <ele>698</ele>
    </trkpt>
    <trkpt lat="-48.964492" lon="-72.81606">
      <ele>698</ele>
    </trkpt>
    <trkpt lat="-48.964585" lon="-72.816076">
      <ele>699</ele>
    </trkpt>
    <trkpt lat="-48.964966" lon="-72.816282">
      <ele>698</ele>
    </trkpt>
    <trkpt lat="-48.965202" lon="-72.816314">
      <ele>701</ele>
    </trkpt>
    <trkpt lat="-48.965341" lon="-72.816328">
      <ele>703</ele>
    </trkpt>
    <trkpt lat="-48.965413" lon="-72.816537">
      <ele>700</ele>
    </trkpt>
    <trkpt lat="-48.965559" lon="-72.816652">
      <ele>702</ele>
    </trkpt>
    <trkpt lat="-48.9656" lon="-72.817119">
      <ele>694</ele>
    </trkpt>
    <trkpt lat="-48.965696" lon="-72.817339">
      <ele>694</ele>
    </trkpt>
    <trkpt lat="-48.965839" lon="-72.817597">
      <ele>695</ele>
    </trkpt>
    <trkpt lat="-48.965976" lon="-72.817704">
      <ele>697</ele>
    </trkpt>
    <trkpt lat="-48.966084" lon="-72.817988">
      <ele>695</ele>
    </trkpt>
    <trkpt lat="-48.966205" lon="-72.818031">
      <ele>695</ele>
    </trkpt>
    <trkpt lat="-48.966292" lon="-72.818176">
      <ele>694</ele>
    </trkpt>
    <trkpt lat="-48.96641" lon="-72.818256">
      <ele>694</ele>
    </trkpt>
    <trkpt lat="-48.96648" lon="-72.818415">
      <ele>693</ele>
    </trkpt>
    <trkpt lat="-48.966601" lon="-72.81845">
      <ele>693</ele>
    </trkpt>
    <trkpt lat="-48.96692" lon="-72.818283">
      <ele>696</ele>
    </trkpt>
    <trkpt lat="-48.967043" lon="-72.818176">
      <ele>698</ele>
    </trkpt>
    <trkpt lat="-48.967205" lon="-72.818224">
      <ele>698</ele>
    </trkpt>
    <trkpt lat="-48.96739" lon="-72.818082">
      <ele>701</ele>
    </trkpt>
    <trkpt lat="-48.967466" lon="-72.81809">
      <ele>701</ele>
    </trkpt>
    <trkpt lat="-48.967809" lon="-72.818047">
      <ele>704</ele>
    </trkpt>
    <trkpt lat="-48.96789" lon="-72.817977">
      <ele>706</ele>
    </trkpt>
    <trkpt lat="-48.967975" lon="-72.818039">
      <ele>705</ele>
    </trkpt>
    <trkpt lat="-48.968029" lon="-72.818053">
      <ele>705</ele>
    </trkpt>
    <trkpt lat="-48.968572" lon="-72.818187">
      <ele>710</ele>
    </trkpt>
    <trkpt lat="-48.968697" lon="-72.818248">
      <ele>711</ele>
    </trkpt>
    <trkpt lat="-48.968913" lon="-72.818452">
      <ele>710</ele>
    </trkpt>
    <trkpt lat="-48.969075" lon="-72.818543">
      <ele>708</ele>
    </trkpt>
    <trkpt lat="-48.969375" lon="-72.818678">
      <ele>707</ele>
    </trkpt>
    <trkpt lat="-48.969502" lon="-72.818731">
      <ele>706</ele>
    </trkpt>
    <trkpt lat="-48.969767" lon="-72.818852">
      <ele>705</ele>
    </trkpt>
    <trkpt lat="-48.969968" lon="-72.819013">
      <ele>702</ele>
    </trkpt>
    <trkpt lat="-48.970296" lon="-72.819147">
      <ele>701</ele>
    </trkpt>
    <trkpt lat="-48.970512" lon="-72.819313">
      <ele>700</ele>
    </trkpt>
    <trkpt lat="-48.970738" lon="-72.819423">
      <ele>699</ele>
    </trkpt>
    <trkpt lat="-48.971069" lon="-72.819498">
      <ele>700</ele>
    </trkpt>
    <trkpt lat="-48.971521" lon="-72.819412">
      <ele>704</ele>
    </trkpt>
    <trkpt lat="-48.971688" lon="-72.819453">
      <ele>703</ele>
    </trkpt>
    <trkpt lat="-48.971826" lon="-72.819453">
      <ele>703</ele>
    </trkpt>
    <trkpt lat="-48.972056" lon="-72.819458">
      <ele>704</ele>
    </trkpt>
    <trkpt lat="-48.972401" lon="-72.819407">
      <ele>705</ele>
    </trkpt>
    <trkpt lat="-48.972623" lon="-72.81941">
      <ele>705</ele>
    </trkpt>
    <trkpt lat="-48.972745" lon="-72.819437">
      <ele>704</ele>
    </trkpt>
    <trkpt lat="-48.972912" lon="-72.819509">
      <ele>703</ele>
    </trkpt>
    <trkpt lat="-48.973243" lon="-72.819745">
      <ele>698</ele>
    </trkpt>
    <trkpt lat="-48.973729" lon="-72.819944">
      <ele>700</ele>
    </trkpt>
    <trkpt lat="-48.973945" lon="-72.820126">
      <ele>701</ele>
    </trkpt>
    <trkpt lat="-48.974122" lon="-72.820311">
      <ele>702</ele>
    </trkpt>
    <trkpt lat="-48.974424" lon="-72.820697">
      <ele>703</ele>
    </trkpt>
    <trkpt lat="-48.974556" lon="-72.820802">
      <ele>703</ele>
    </trkpt>
    <trkpt lat="-48.974724" lon="-72.82088">
      <ele>702</ele>
    </trkpt>
    <trkpt lat="-48.974967" lon="-72.820949">
      <ele>701</ele>
    </trkpt>
    <trkpt lat="-48.975285" lon="-72.820976">
      <ele>703</ele>
    </trkpt>
    <trkpt lat="-48.975843" lon="-72.821266">
      <ele>705</ele>
    </trkpt>
    <trkpt lat="-48.976115" lon="-72.821285">
      <ele>708</ele>
    </trkpt>
    <trkpt lat="-48.976238" lon="-72.821483">
      <ele>707</ele>
    </trkpt>
    <trkpt lat="-48.976391" lon="-72.821695">
      <ele>706</ele>
    </trkpt>
    <trkpt lat="-48.976474" lon="-72.821974">
      <ele>705</ele>
    </trkpt>
    <trkpt lat="-48.976532" lon="-72.822245">
      <ele>705</ele>
    </trkpt>
    <trkpt lat="-48.976829" lon="-72.823076">
      <ele>702</ele>
    </trkpt>
    <trkpt lat="-48.97693" lon="-72.823484">
      <ele>698</ele>
    </trkpt>
    <trkpt lat="-48.97707" lon="-72.823838">
      <ele>695</ele>
    </trkpt>
    <trkpt lat="-48.977366" lon="-72.824262">
      <ele>691</ele>
    </trkpt>
    <trkpt lat="-48.977602" lon="-72.824458">
      <ele>690</ele>
    </trkpt>
    <trkpt lat="-48.977666" lon="-72.824533">
      <ele>689</ele>
    </trkpt>
    <trkpt lat="-48.978028" lon="-72.825155">
      <ele>683</ele>
    </trkpt>
    <trkpt lat="-48.978139" lon="-72.825262">
      <ele>682</ele>
    </trkpt>
    <trkpt lat="-48.978431" lon="-72.825466">
      <ele>682</ele>
    </trkpt>
    <trkpt lat="-48.978808" lon="-72.825622">
      <ele>682</ele>
    </trkpt>
    <trkpt lat="-48.979104" lon="-72.825793">
      <ele>682</ele>
    </trkpt>
    <trkpt lat="-48.979458" lon="-72.825997">
      <ele>678</ele>
    </trkpt>
    <trkpt lat="-48.979762" lon="-72.826236">
      <ele>676</ele>
    </trkpt>
    <trkpt lat="-48.98007" lon="-72.826432">
      <ele>675</ele>
    </trkpt>
    <trkpt lat="-48.980123" lon="-72.826499">
      <ele>674</ele>
    </trkpt>
    <trkpt lat="-48.980241" lon="-72.826735">
      <ele>671</ele>
    </trkpt>
    <trkpt lat="-48.980336" lon="-72.827078">
      <ele>667</ele>
    </trkpt>
    <trkpt lat="-48.98037" lon="-72.827325">
      <ele>666</ele>
    </trkpt>
    <trkpt lat="-48.980352" lon="-72.827489">
      <ele>666</ele>
    </trkpt>
    <trkpt lat="-48.980431" lon="-72.827679">
      <ele>667</ele>
    </trkpt>
    <trkpt lat="-48.980428" lon="-72.827703">
      <ele>667</ele>
    </trkpt>
    <trkpt lat="-48.98044" lon="-72.827784">
      <ele>667</ele>
    </trkpt>
    <trkpt lat="-48.980575" lon="-72.828049">
      <ele>670</ele>
    </trkpt>
    <trkpt lat="-48.980841" lon="-72.828669">
      <ele>674</ele>
    </trkpt>
    <trkpt lat="-48.981149" lon="-72.829146">
      <ele>672</ele>
    </trkpt>
    <trkpt lat="-48.981225" lon="-72.829337">
      <ele>671</ele>
    </trkpt>
    <trkpt lat="-48.981239" lon="-72.82954">
      <ele>671</ele>
    </trkpt>
    <trkpt lat="-48.981215" lon="-72.82976">
      <ele>672</ele>
    </trkpt>
    <trkpt lat="-48.98123" lon="-72.829959">
      <ele>673</ele>
    </trkpt>
    <trkpt lat="-48.981317" lon="-72.830227">
      <ele>675</ele>
    </trkpt>
    <trkpt lat="-48.98144" lon="-72.83045">
      <ele>677</ele>
    </trkpt>
    <trkpt lat="-48.98154" lon="-72.830533">
      <ele>677</ele>
    </trkpt>
    <trkpt lat="-48.981665" lon="-72.830581">
      <ele>676</ele>
    </trkpt>
    <trkpt lat="-48.982081" lon="-72.83046">
      <ele>671</ele>
    </trkpt>
    <trkpt lat="-48.982214" lon="-72.83045">
      <ele>670</ele>
    </trkpt>
    <trkpt lat="-48.982327" lon="-72.830474">
      <ele>669</ele>
    </trkpt>
    <trkpt lat="-48.982774" lon="-72.830691">
      <ele>667</ele>
    </trkpt>
    <trkpt lat="-48.983014" lon="-72.830849">
      <ele>665</ele>
    </trkpt>
    <trkpt lat="-48.983763" lon="-72.831496">
      <ele>652</ele>
    </trkpt>
    <trkpt lat="-48.983858" lon="-72.831563">
      <ele>651</ele>
    </trkpt>
    <trkpt lat="-48.98401" lon="-72.831753">
      <ele>649</ele>
    </trkpt>
    <trkpt lat="-48.984233" lon="-72.831895">
      <ele>647</ele>
    </trkpt>
    <trkpt lat="-48.984314" lon="-72.831957">
      <ele>648</ele>
    </trkpt>
    <trkpt lat="-48.984473" lon="-72.831965">
      <ele>647</ele>
    </trkpt>
    <trkpt lat="-48.984512" lon="-72.831968">
      <ele>648</ele>
    </trkpt>
    <trkpt lat="-48.984923" lon="-72.831818">
      <ele>649</ele>
    </trkpt>
    <trkpt lat="-48.985224" lon="-72.831869">
      <ele>652</ele>
    </trkpt>
    <trkpt lat="-48.985321" lon="-72.831804">
      <ele>651</ele>
    </trkpt>
    <trkpt lat="-48.985437" lon="-72.831812">
      <ele>653</ele>
    </trkpt>
    <trkpt lat="-48.985524" lon="-72.831952">
      <ele>659</ele>
    </trkpt>
    <trkpt lat="-48.985622" lon="-72.832013">
      <ele>662</ele>
    </trkpt>
    <trkpt lat="-48.985708" lon="-72.831968">
      <ele>661</ele>
    </trkpt>
    <trkpt lat="-48.985791" lon="-72.831853">
      <ele>658</ele>
    </trkpt>
    <trkpt lat="-48.98584" lon="-72.831702">
      <ele>653</ele>
    </trkpt>
    <trkpt lat="-48.985853" lon="-72.831485">
      <ele>648</ele>
    </trkpt>
    <trkpt lat="-48.985833" lon="-72.831313">
      <ele>644</ele>
    </trkpt>
    <trkpt lat="-48.985848" lon="-72.830989">
      <ele>642</ele>
    </trkpt>
    <trkpt lat="-48.985892" lon="-72.830817">
      <ele>641</ele>
    </trkpt>
    <trkpt lat="-48.985932" lon="-72.830632">
      <ele>640</ele>
    </trkpt>
    <trkpt lat="-48.985988" lon="-72.830552">
      <ele>639</ele>
    </trkpt>
    <trkpt lat="-48.98608" lon="-72.83053">
      <ele>640</ele>
    </trkpt>
    <trkpt lat="-48.986187" lon="-72.830528">
      <ele>640</ele>
    </trkpt>
    <trkpt lat="-48.986349" lon="-72.830538">
      <ele>641</ele>
    </trkpt>
    <trkpt lat="-48.986879" lon="-72.830635">
      <ele>641</ele>
    </trkpt>
    <trkpt lat="-48.987039" lon="-72.830678">
      <ele>641</ele>
    </trkpt>
    <trkpt lat="-48.987173" lon="-72.830739">
      <ele>642</ele>
    </trkpt>
    <trkpt lat="-48.987282" lon="-72.83093">
      <ele>646</ele>
    </trkpt>
    <trkpt lat="-48.987352" lon="-72.831104">
      <ele>649</ele>
    </trkpt>
    <trkpt lat="-48.987409" lon="-72.831185">
      <ele>650</ele>
    </trkpt>
    <trkpt lat="-48.987484" lon="-72.831187">
      <ele>651</ele>
    </trkpt>
    <trkpt lat="-48.987523" lon="-72.831099">
      <ele>650</ele>
    </trkpt>
    <trkpt lat="-48.98791" lon="-72.831131">
      <ele>652</ele>
    </trkpt>
    <trkpt lat="-48.988093" lon="-72.831228">
      <ele>651</ele>
    </trkpt>
    <trkpt lat="-48.988234" lon="-72.831222">
      <ele>650</ele>
    </trkpt>
    <trkpt lat="-48.988345" lon="-72.831147">
      <ele>649</ele>
    </trkpt>
    <trkpt lat="-48.988674" lon="-72.831305">
      <ele>647</ele>
    </trkpt>
    <trkpt lat="-48.988771" lon="-72.831434">
      <ele>645</ele>
    </trkpt>
    <trkpt lat="-48.989121" lon="-72.831466">
      <ele>645</ele>
    </trkpt>
    <trkpt lat="-48.989218" lon="-72.831523">
      <ele>646</ele>
    </trkpt>
    <trkpt lat="-48.989868" lon="-72.832129">
      <ele>646</ele>
    </trkpt>
    <trkpt lat="-48.989989" lon="-72.832188">
      <ele>646</ele>
    </trkpt>
    <trkpt lat="-48.99013" lon="-72.832435">
      <ele>644</ele>
    </trkpt>
    <trkpt lat="-48.990246" lon="-72.832553">
      <ele>644</ele>
    </trkpt>
    <trkpt lat="-48.990311" lon="-72.832676">
      <ele>644</ele>
    </trkpt>
    <trkpt lat="-48.990394" lon="-72.832738">
      <ele>645</ele>
    </trkpt>
    <trkpt lat="-48.990658" lon="-72.832834">
      <ele>646</ele>
    </trkpt>
    <trkpt lat="-48.990795" lon="-72.832837">
      <ele>647</ele>
    </trkpt>
    <trkpt lat="-48.991195" lon="-72.833306">
      <ele>646</ele>
    </trkpt>
    <trkpt lat="-48.991314" lon="-72.833384">
      <ele>645</ele>
    </trkpt>
    <trkpt lat="-48.99149" lon="-72.833389">
      <ele>646</ele>
    </trkpt>
    <trkpt lat="-48.991768" lon="-72.833577">
      <ele>645</ele>
    </trkpt>
    <trkpt lat="-48.991844" lon="-72.833642">
      <ele>645</ele>
    </trkpt>
    <trkpt lat="-48.992039" lon="-72.833894">
      <ele>639</ele>
    </trkpt>
    <trkpt lat="-48.992265" lon="-72.834063">
      <ele>634</ele>
    </trkpt>
    <trkpt lat="-48.992281" lon="-72.834132">
      <ele>633</ele>
    </trkpt>
    <trkpt lat="-48.992311" lon="-72.834175">
      <ele>632</ele>
    </trkpt>
    <trkpt lat="-48.992506" lon="-72.834272">
      <ele>630</ele>
    </trkpt>
    <trkpt lat="-48.992699" lon="-72.834371">
      <ele>629</ele>
    </trkpt>
    <trkpt lat="-48.992763" lon="-72.834422">
      <ele>627</ele>
    </trkpt>
    <trkpt lat="-48.992925" lon="-72.834495">
      <ele>626</ele>
    </trkpt>
    <trkpt lat="-48.992972" lon="-72.834604">
      <ele>624</ele>
    </trkpt>
    <trkpt lat="-48.993173" lon="-72.834819">
      <ele>621</ele>
    </trkpt>
    <trkpt lat="-48.993407" lon="-72.835146">
      <ele>619</ele>
    </trkpt>
    <trkpt lat="-48.993787" lon="-72.835401">
      <ele>613</ele>
    </trkpt>
    <trkpt lat="-48.993916" lon="-72.83553">
      <ele>610</ele>
    </trkpt>
    <trkpt lat="-48.993963" lon="-72.835616">
      <ele>609</ele>
    </trkpt>
    <trkpt lat="-48.993919" lon="-72.835715">
      <ele>611</ele>
    </trkpt>
    <trkpt lat="-48.993884" lon="-72.83579">
      <ele>613</ele>
    </trkpt>
    <trkpt lat="-48.99387" lon="-72.835841">
      <ele>614</ele>
    </trkpt>
    <trkpt lat="-48.993997" lon="-72.835994">
      <ele>611</ele>
    </trkpt>
    <trkpt lat="-48.993946" lon="-72.8362">
      <ele>613</ele>
    </trkpt>
    <trkpt lat="-48.993944" lon="-72.836238">
      <ele>613</ele>
    </trkpt>
    <trkpt lat="-48.994032" lon="-72.836302">
      <ele>611</ele>
    </trkpt>
    <trkpt lat="-48.994137" lon="-72.836321">
      <ele>608</ele>
    </trkpt>
    <trkpt lat="-48.994213" lon="-72.8366">
      <ele>607</ele>
    </trkpt>
    <trkpt lat="-48.994268" lon="-72.836799">
      <ele>606</ele>
    </trkpt>
    <trkpt lat="-48.994305" lon="-72.83704">
      <ele>603</ele>
    </trkpt>
    <trkpt lat="-48.994308" lon="-72.837201">
      <ele>601</ele>
    </trkpt>
    <trkpt lat="-48.994359" lon="-72.837324">
      <ele>598</ele>
    </trkpt>
    <trkpt lat="-48.994452" lon="-72.837662">
      <ele>593</ele>
    </trkpt>
    <trkpt lat="-48.994574" lon="-72.837802">
      <ele>590</ele>
    </trkpt>
    <trkpt lat="-48.994593" lon="-72.837917">
      <ele>590</ele>
    </trkpt>
    <trkpt lat="-48.994676" lon="-72.838046">
      <ele>587</ele>
    </trkpt>
    <trkpt lat="-48.994727" lon="-72.838204">
      <ele>587</ele>
    </trkpt>
    <trkpt lat="-48.994861" lon="-72.83862">
      <ele>591</ele>
    </trkpt>
    <trkpt lat="-48.995148" lon="-72.838695">
      <ele>587</ele>
    </trkpt>
    <trkpt lat="-48.99547" lon="-72.8387">
      <ele>579</ele>
    </trkpt>
    <trkpt lat="-48.995654" lon="-72.838738">
      <ele>574</ele>
    </trkpt>
    <trkpt lat="-48.996679" lon="-72.838743">
      <ele>542</ele>
    </trkpt>
    <trkpt lat="-48.996767" lon="-72.838759">
      <ele>540</ele>
    </trkpt>
    <trkpt lat="-48.997222" lon="-72.838974">
      <ele>531</ele>
    </trkpt>
    <trkpt lat="-48.997467" lon="-72.839035">
      <ele>524</ele>
    </trkpt>
    <trkpt lat="-48.99755" lon="-72.83903">
      <ele>523</ele>
    </trkpt>
    <trkpt lat="-48.997646" lon="-72.838816">
      <ele>522</ele>
    </trkpt>
    <trkpt lat="-48.99781" lon="-72.8387">
      <ele>521</ele>
    </trkpt>
    <trkpt lat="-48.997914" lon="-72.838647">
      <ele>521</ele>
    </trkpt>
    <trkpt lat="-48.998028" lon="-72.838735">
      <ele>519</ele>
    </trkpt>
    <trkpt lat="-48.998062" lon="-72.838864">
      <ele>518</ele>
    </trkpt>
    <trkpt lat="-48.998298" lon="-72.839293">
      <ele>515</ele>
    </trkpt>
    <trkpt lat="-48.998336" lon="-72.839414">
      <ele>514</ele>
    </trkpt>
    <trkpt lat="-48.9984" lon="-72.839454">
      <ele>513</ele>
    </trkpt>
    <trkpt lat="-48.998433" lon="-72.839422">
      <ele>513</ele>
    </trkpt>
    <trkpt lat="-48.998628" lon="-72.839486">
      <ele>512</ele>
    </trkpt>
    <trkpt lat="-48.998693" lon="-72.839467">
      <ele>511</ele>
    </trkpt>
    <trkpt lat="-48.998755" lon="-72.839424">
      <ele>511</ele>
    </trkpt>
    <trkpt lat="-48.998887" lon="-72.839204">
      <ele>510</ele>
    </trkpt>
    <trkpt lat="-48.999042" lon="-72.83925">
      <ele>509</ele>
    </trkpt>
    <trkpt lat="-48.999095" lon="-72.839261">
      <ele>508</ele>
    </trkpt>
    <trkpt lat="-48.999151" lon="-72.839245">
      <ele>507</ele>
    </trkpt>
    <trkpt lat="-48.999158" lon="-72.839097">
      <ele>507</ele>
    </trkpt>
    <trkpt lat="-48.999147" lon="-72.838987">
      <ele>508</ele>
    </trkpt>
    <trkpt lat="-48.999158" lon="-72.838896">
      <ele>508</ele>
    </trkpt>
    <trkpt lat="-48.999169" lon="-72.838762">
      <ele>509</ele>
    </trkpt>
    <trkpt lat="-48.999209" lon="-72.838622">
      <ele>509</ele>
    </trkpt>
    <trkpt lat="-48.999255" lon="-72.838453">
      <ele>511</ele>
    </trkpt>
    <trkpt lat="-48.999322" lon="-72.838335">
      <ele>511</ele>
    </trkpt>
    <trkpt lat="-48.999389" lon="-72.838172">
      <ele>512</ele>
    </trkpt>
    <trkpt lat="-48.999478" lon="-72.837957">
      <ele>512</ele>
    </trkpt>
    <trkpt lat="-48.999689" lon="-72.837746">
      <ele>513</ele>
    </trkpt>
    <trkpt lat="-48.999743" lon="-72.837871">
      <ele>513</ele>
    </trkpt>
  </trkseg>
</trk>
</gpx>