<?xml version="1.0"?>
<gpx version="1.1" creator="Organic Maps" xmlns="http://www.topografix.com/GPX/1/1"
    xmlns:gpxx="http://www.garmin.com/xmlschemas/GpxExtensions/v3"
    xmlns:gpx_style="http://www.topografix.com/GPX/gpx_style/0/2"
    xmlns:xsi="http://www.w3.org/2001/XMLSchema-instance"
    xsi:schemaLocation="http://www.topografix.com/GPX/1/1 https://www.topografix.com/GPX/1/1/gpx.xsd http://www.topografix.com/GPX/gpx_style/0/2 https://www.topografix.com/GPX/gpx_style/0/2/gpx_style.xsd http://www.garmin.com/xmlschemas/GpxExtensions/v3 https://www.garmin.com/xmlschemas/GpxExtensionsv3.xsd">
<metadata>
  <name>Terminal de Buses de Quintero</name>
</metadata>
<trk>
  <name>Terminal de Buses de Quintero</name>
  <extensions>
    <gpxx:TrackExtension><gpxx:DisplayColor>DarkYellow</gpxx:DisplayColor></gpxx:TrackExtension>
    <gpx_style:line><gpx_style:color>FF9600</gpx_style:color></gpx_style:line>
    <xsi:gpx><color>#FFFF9600</color></xsi:gpx>
  </extensions>
  <trkseg>
    <trkpt lat="-32.777126" lon="-71.526794">
      <ele>16</ele>
    </trkpt>
    <trkpt lat="-32.777135" lon="-71.526619">
      <ele>14</ele>
    </trkpt>
    <trkpt lat="-32.777076" lon="-71.526615">
      <ele>14</ele>
    </trkpt>
    <trkpt lat="-32.777079" lon="-71.526311">
      <ele>13</ele>
    </trkpt>
    <trkpt lat="-32.776831" lon="-71.526298">
      <ele>13</ele>
    </trkpt>
    <trkpt lat="-32.776788" lon="-71.526301">
      <ele>13</ele>
    </trkpt>
    <trkpt lat="-32.776743" lon="-71.526309">
      <ele>13</ele>
    </trkpt>
    <trkpt lat="-32.7767" lon="-71.526325">
      <ele>13</ele>
    </trkpt>
    <trkpt lat="-32.776652" lon="-71.526354">
      <ele>13</ele>
    </trkpt>
    <trkpt lat="-32.776607" lon="-71.526389">
      <ele>13</ele>
    </trkpt>
    <trkpt lat="-32.776558" lon="-71.526947">
      <ele>15</ele>
    </trkpt>
    <trkpt lat="-32.776544" lon="-71.527095">
      <ele>16</ele>
    </trkpt>
    <trkpt lat="-32.776474" lon="-71.527894">
      <ele>24</ele>
    </trkpt>
    <trkpt lat="-32.776467" lon="-71.527956">
      <ele>24</ele>
    </trkpt>
    <trkpt lat="-32.777227" lon="-71.52809">
      <ele>26</ele>
    </trkpt>
    <trkpt lat="-32.777268" lon="-71.528098">
      <ele>26</ele>
    </trkpt>
    <trkpt lat="-32.77732" lon="-71.528106">
      <ele>26</ele>
    </trkpt>
    <trkpt lat="-32.7775" lon="-71.528138">
      <ele>27</ele>
    </trkpt>
    <trkpt lat="-32.777904" lon="-71.528208">
      <ele>28</ele>
    </trkpt>
    <trkpt lat="-32.778003" lon="-71.528224">
      <ele>28</ele>
    </trkpt>
    <trkpt lat="-32.778348" lon="-71.528286">
      <ele>27</ele>
    </trkpt>
    <trkpt lat="-32.77872" lon="-71.52835">
      <ele>27</ele>
    </trkpt>
    <trkpt lat="-32.779002" lon="-71.528401">
      <ele>27</ele>
    </trkpt>
    <trkpt lat="-32.77918" lon="-71.52843">
      <ele>27</ele>
    </trkpt>
    <trkpt lat="-32.77925" lon="-71.528444">
      <ele>26</ele>
    </trkpt>
    <trkpt lat="-32.779582" lon="-71.528505">
      <ele>26</ele>
    </trkpt>
    <trkpt lat="-32.779866" lon="-71.528556">
      <ele>24</ele>
    </trkpt>
    <trkpt lat="-32.780527" lon="-71.528666">
      <ele>21</ele>
    </trkpt>
    <trkpt lat="-32.780912" lon="-71.528728">
      <ele>18</ele>
    </trkpt>
    <trkpt lat="-32.781221" lon="-71.528779">
      <ele>17</ele>
    </trkpt>
    <trkpt lat="-32.781361" lon="-71.528715">
      <ele>16</ele>
    </trkpt>
    <trkpt lat="-32.781487" lon="-71.528597">
      <ele>15</ele>
    </trkpt>
    <trkpt lat="-32.78174" lon="-71.528473">
      <ele>14</ele>
    </trkpt>
    <trkpt lat="-32.782538" lon="-71.528084">
      <ele>13</ele>
    </trkpt>
    <trkpt lat="-32.782757" lon="-71.528047">
      <ele>12</ele>
    </trkpt>
    <trkpt lat="-32.783267" lon="-71.527942">
      <ele>13</ele>
    </trkpt>
    <trkpt lat="-32.783276" lon="-71.527824">
      <ele>13</ele>
    </trkpt>
    <trkpt lat="-32.783348" lon="-71.527127">
      <ele>13</ele>
    </trkpt>
    <trkpt lat="-32.783447" lon="-71.526204">
      <ele>13</ele>
    </trkpt>
    <trkpt lat="-32.78266" lon="-71.526091">
      <ele>12</ele>
    </trkpt>
    <trkpt lat="-32.782538" lon="-71.526032">
      <ele>11</ele>
    </trkpt>
    <trkpt lat="-32.78252" lon="-71.526">
      <ele>11</ele>
    </trkpt>
    <trkpt lat="-32.782507" lon="-71.525601">
      <ele>13</ele>
    </trkpt>
    <trkpt lat="-32.782658" lon="-71.525094">
      <ele>11</ele>
    </trkpt>
    <trkpt lat="-32.782743" lon="-71.524863">
      <ele>11</ele>
    </trkpt>
    <trkpt lat="-32.782807" lon="-71.524689">
      <ele>10</ele>
    </trkpt>
    <trkpt lat="-32.783025" lon="-71.524321">
      <ele>11</ele>
    </trkpt>
    <trkpt lat="-32.783287" lon="-71.524166">
      <ele>12</ele>
    </trkpt>
    <trkpt lat="-32.783456" lon="-71.523951">
      <ele>12</ele>
    </trkpt>
    <trkpt lat="-32.783806" lon="-71.523458">
      <ele>12</ele>
    </trkpt>
    <trkpt lat="-32.783882" lon="-71.523184">
      <ele>13</ele>
    </trkpt>
    <trkpt lat="-32.784067" lon="-71.522229">
      <ele>13</ele>
    </trkpt>
    <trkpt lat="-32.78418" lon="-71.521717">
      <ele>10</ele>
    </trkpt>
    <trkpt lat="-32.78429" lon="-71.521328">
      <ele>10</ele>
    </trkpt>
    <trkpt lat="-32.784432" lon="-71.520816">
      <ele>10</ele>
    </trkpt>
    <trkpt lat="-32.784362" lon="-71.520813">
      <ele>10</ele>
    </trkpt>
    <trkpt lat="-32.784491" lon="-71.520223">
      <ele>13</ele>
    </trkpt>
    <trkpt lat="-32.784547" lon="-71.519888">
      <ele>14</ele>
    </trkpt>
    <trkpt lat="-32.784588" lon="-71.519424">
      <ele>12</ele>
    </trkpt>
    <trkpt lat="-32.784599" lon="-71.5193">
      <ele>12</ele>
    </trkpt>
    <trkpt lat="-32.784671" lon="-71.518868">
      <ele>11</ele>
    </trkpt>
    <trkpt lat="-32.784818" lon="-71.517975">
      <ele>10</ele>
    </trkpt>
    <trkpt lat="-32.784836" lon="-71.517685">
      <ele>9</ele>
    </trkpt>
    <trkpt lat="-32.784859" lon="-71.516489">
      <ele>11</ele>
    </trkpt>
    <trkpt lat="-32.784644" lon="-71.513541">
      <ele>9</ele>
    </trkpt>
    <trkpt lat="-32.784629" lon="-71.513501">
      <ele>9</ele>
    </trkpt>
    <trkpt lat="-32.784184" lon="-71.512482">
      <ele>10</ele>
    </trkpt>
    <trkpt lat="-32.784171" lon="-71.512399">
      <ele>10</ele>
    </trkpt>
    <trkpt lat="-32.784178" lon="-71.512345">
      <ele>11</ele>
    </trkpt>
    <trkpt lat="-32.78422" lon="-71.512348">
      <ele>11</ele>
    </trkpt>
    <trkpt lat="-32.784331" lon="-71.511326">
      <ele>14</ele>
    </trkpt>
    <trkpt lat="-32.784245" lon="-71.511283">
      <ele>14</ele>
    </trkpt>
    <trkpt lat="-32.784187" lon="-71.511229">
      <ele>14</ele>
    </trkpt>
    <trkpt lat="-32.784015" lon="-71.511082">
      <ele>14</ele>
    </trkpt>
    <trkpt lat="-32.784137" lon="-71.510122">
      <ele>14</ele>
    </trkpt>
    <trkpt lat="-32.784146" lon="-71.510055">
      <ele>14</ele>
    </trkpt>
    <trkpt lat="-32.783677" lon="-71.509977">
      <ele>12</ele>
    </trkpt>
    <trkpt lat="-32.78358" lon="-71.509961">
      <ele>12</ele>
    </trkpt>
    <trkpt lat="-32.783566" lon="-71.509896">
      <ele>13</ele>
    </trkpt>
    <trkpt lat="-32.783393" lon="-71.509035">
      <ele>14</ele>
    </trkpt>
    <trkpt lat="-32.783375" lon="-71.508963">
      <ele>14</ele>
    </trkpt>
    <trkpt lat="-32.783201" lon="-71.508421">
      <ele>12</ele>
    </trkpt>
    <trkpt lat="-32.783064" lon="-71.50796">
      <ele>12</ele>
    </trkpt>
    <trkpt lat="-32.782849" lon="-71.507107">
      <ele>14</ele>
    </trkpt>
    <trkpt lat="-32.782748" lon="-71.506763">
      <ele>12</ele>
    </trkpt>
    <trkpt lat="-32.782653" lon="-71.506442">
      <ele>14</ele>
    </trkpt>
    <trkpt lat="-32.782525" lon="-71.506045">
      <ele>16</ele>
    </trkpt>
    <trkpt lat="-32.7822" lon="-71.504988">
      <ele>17</ele>
    </trkpt>
    <trkpt lat="-32.782135" lon="-71.504789">
      <ele>16</ele>
    </trkpt>
    <trkpt lat="-32.781821" lon="-71.503835">
      <ele>16</ele>
    </trkpt>
    <trkpt lat="-32.781528" lon="-71.50289">
      <ele>14</ele>
    </trkpt>
    <trkpt lat="-32.781447" lon="-71.502606">
      <ele>14</ele>
    </trkpt>
    <trkpt lat="-32.781339" lon="-71.502225">
      <ele>14</ele>
    </trkpt>
    <trkpt lat="-32.781212" lon="-71.502027">
      <ele>14</ele>
    </trkpt>
    <trkpt lat="-32.78105" lon="-71.501775">
      <ele>13</ele>
    </trkpt>
    <trkpt lat="-32.780585" lon="-71.501134">
      <ele>13</ele>
    </trkpt>
    <trkpt lat="-32.780367" lon="-71.50086">
      <ele>14</ele>
    </trkpt>
    <trkpt lat="-32.780026" lon="-71.500433">
      <ele>13</ele>
    </trkpt>
    <trkpt lat="-32.779722" lon="-71.500053">
      <ele>14</ele>
    </trkpt>
    <trkpt lat="-32.779395" lon="-71.499645">
      <ele>12</ele>
    </trkpt>
    <trkpt lat="-32.778903" lon="-71.499004">
      <ele>12</ele>
    </trkpt>
    <trkpt lat="-32.778529" lon="-71.49851">
      <ele>11</ele>
    </trkpt>
    <trkpt lat="-32.778078" lon="-71.497923">
      <ele>8</ele>
    </trkpt>
    <trkpt lat="-32.776864" lon="-71.496308">
      <ele>11</ele>
    </trkpt>
    <trkpt lat="-32.77661" lon="-71.495984">
      <ele>11</ele>
    </trkpt>
    <trkpt lat="-32.776059" lon="-71.495251">
      <ele>11</ele>
    </trkpt>
    <trkpt lat="-32.775843" lon="-71.495002">
      <ele>13</ele>
    </trkpt>
    <trkpt lat="-32.773509" lon="-71.492685">
      <ele>12</ele>
    </trkpt>
    <trkpt lat="-32.772931" lon="-71.492194">
      <ele>13</ele>
    </trkpt>
    <trkpt lat="-32.772879" lon="-71.492119">
      <ele>14</ele>
    </trkpt>
    <trkpt lat="-32.772832" lon="-71.492044">
      <ele>14</ele>
    </trkpt>
    <trkpt lat="-32.772782" lon="-71.49196">
      <ele>14</ele>
    </trkpt>
    <trkpt lat="-32.772785" lon="-71.491926">
      <ele>14</ele>
    </trkpt>
    <trkpt lat="-32.772803" lon="-71.491907">
      <ele>14</ele>
    </trkpt>
    <trkpt lat="-32.772823" lon="-71.491888">
      <ele>15</ele>
    </trkpt>
    <trkpt lat="-32.772852" lon="-71.491869">
      <ele>15</ele>
    </trkpt>
    <trkpt lat="-32.772884" lon="-71.491856">
      <ele>15</ele>
    </trkpt>
    <trkpt lat="-32.772916" lon="-71.491848">
      <ele>16</ele>
    </trkpt>
    <trkpt lat="-32.773019" lon="-71.491856">
      <ele>16</ele>
    </trkpt>
    <trkpt lat="-32.773123" lon="-71.491853">
      <ele>17</ele>
    </trkpt>
    <trkpt lat="-32.773227" lon="-71.49184">
      <ele>18</ele>
    </trkpt>
    <trkpt lat="-32.773328" lon="-71.491816">
      <ele>19</ele>
    </trkpt>
    <trkpt lat="-32.773427" lon="-71.491781">
      <ele>20</ele>
    </trkpt>
    <trkpt lat="-32.773524" lon="-71.491735">
      <ele>21</ele>
    </trkpt>
    <trkpt lat="-32.773601" lon="-71.491692">
      <ele>22</ele>
    </trkpt>
    <trkpt lat="-32.773676" lon="-71.491641">
      <ele>23</ele>
    </trkpt>
    <trkpt lat="-32.779591" lon="-71.485638">
      <ele>44</ele>
    </trkpt>
    <trkpt lat="-32.779728" lon="-71.485483">
      <ele>44</ele>
    </trkpt>
    <trkpt lat="-32.779873" lon="-71.485335">
      <ele>45</ele>
    </trkpt>
    <trkpt lat="-32.780019" lon="-71.485196">
      <ele>46</ele>
    </trkpt>
    <trkpt lat="-32.78015" lon="-71.485086">
      <ele>47</ele>
    </trkpt>
    <trkpt lat="-32.780283" lon="-71.484979">
      <ele>48</ele>
    </trkpt>
    <trkpt lat="-32.780418" lon="-71.484882">
      <ele>48</ele>
    </trkpt>
    <trkpt lat="-32.780558" lon="-71.484788">
      <ele>49</ele>
    </trkpt>
    <trkpt lat="-32.7807" lon="-71.484702">
      <ele>49</ele>
    </trkpt>
    <trkpt lat="-32.781494" lon="-71.484292">
      <ele>42</ele>
    </trkpt>
    <trkpt lat="-32.781659" lon="-71.484206">
      <ele>41</ele>
    </trkpt>
    <trkpt lat="-32.782432" lon="-71.483806">
      <ele>38</ele>
    </trkpt>
    <trkpt lat="-32.782613" lon="-71.483705">
      <ele>38</ele>
    </trkpt>
    <trkpt lat="-32.782775" lon="-71.483611">
      <ele>39</ele>
    </trkpt>
    <trkpt lat="-32.783014" lon="-71.483479">
      <ele>40</ele>
    </trkpt>
    <trkpt lat="-32.783158" lon="-71.483401">
      <ele>42</ele>
    </trkpt>
    <trkpt lat="-32.783276" lon="-71.483372">
      <ele>44</ele>
    </trkpt>
    <trkpt lat="-32.783388" lon="-71.483337">
      <ele>46</ele>
    </trkpt>
    <trkpt lat="-32.783515" lon="-71.483289">
      <ele>47</ele>
    </trkpt>
    <trkpt lat="-32.783636" lon="-71.483232">
      <ele>48</ele>
    </trkpt>
    <trkpt lat="-32.783756" lon="-71.483171">
      <ele>47</ele>
    </trkpt>
    <trkpt lat="-32.783873" lon="-71.483098">
      <ele>47</ele>
    </trkpt>
    <trkpt lat="-32.784277" lon="-71.482903">
      <ele>48</ele>
    </trkpt>
    <trkpt lat="-32.786606" lon="-71.481752">
      <ele>52</ele>
    </trkpt>
    <trkpt lat="-32.787492" lon="-71.481309">
      <ele>56</ele>
    </trkpt>
    <trkpt lat="-32.786606" lon="-71.481752">
      <ele>52</ele>
    </trkpt>
    <trkpt lat="-32.784277" lon="-71.482903">
      <ele>48</ele>
    </trkpt>
    <trkpt lat="-32.783873" lon="-71.483098">
      <ele>47</ele>
    </trkpt>
    <trkpt lat="-32.783808" lon="-71.483122">
      <ele>47</ele>
    </trkpt>
    <trkpt lat="-32.783697" lon="-71.483176">
      <ele>47</ele>
    </trkpt>
    <trkpt lat="-32.783582" lon="-71.483224">
      <ele>47</ele>
    </trkpt>
    <trkpt lat="-32.783465" lon="-71.483265">
      <ele>46</ele>
    </trkpt>
    <trkpt lat="-32.783316" lon="-71.483308">
      <ele>45</ele>
    </trkpt>
    <trkpt lat="-32.783165" lon="-71.48334">
      <ele>42</ele>
    </trkpt>
    <trkpt lat="-32.783012" lon="-71.483359">
      <ele>40</ele>
    </trkpt>
    <trkpt lat="-32.782858" lon="-71.483369">
      <ele>39</ele>
    </trkpt>
    <trkpt lat="-32.782689" lon="-71.483369">
      <ele>38</ele>
    </trkpt>
    <trkpt lat="-32.782522" lon="-71.483356">
      <ele>39</ele>
    </trkpt>
    <trkpt lat="-32.782356" lon="-71.483332">
      <ele>40</ele>
    </trkpt>
    <trkpt lat="-32.782189" lon="-71.4833">
      <ele>40</ele>
    </trkpt>
    <trkpt lat="-32.78169" lon="-71.483165">
      <ele>43</ele>
    </trkpt>
    <trkpt lat="-32.780748" lon="-71.482903">
      <ele>45</ele>
    </trkpt>
    <trkpt lat="-32.779848" lon="-71.482675">
      <ele>43</ele>
    </trkpt>
    <trkpt lat="-32.779115" lon="-71.482481">
      <ele>42</ele>
    </trkpt>
    <trkpt lat="-32.778157" lon="-71.482224">
      <ele>44</ele>
    </trkpt>
    <trkpt lat="-32.775906" lon="-71.481615">
      <ele>45</ele>
    </trkpt>
    <trkpt lat="-32.77442" lon="-71.481194">
      <ele>46</ele>
    </trkpt>
    <trkpt lat="-32.772803" lon="-71.480765">
      <ele>48</ele>
    </trkpt>
    <trkpt lat="-32.770811" lon="-71.48022">
      <ele>43</ele>
    </trkpt>
    <trkpt lat="-32.770581" lon="-71.480159">
      <ele>42</ele>
    </trkpt>
    <trkpt lat="-32.770252" lon="-71.480076">
      <ele>42</ele>
    </trkpt>
    <trkpt lat="-32.769837" lon="-71.479968">
      <ele>43</ele>
    </trkpt>
    <trkpt lat="-32.769699" lon="-71.479939">
      <ele>43</ele>
    </trkpt>
    <trkpt lat="-32.769564" lon="-71.479923">
      <ele>42</ele>
    </trkpt>
    <trkpt lat="-32.769427" lon="-71.479915">
      <ele>42</ele>
    </trkpt>
    <trkpt lat="-32.769289" lon="-71.479917">
      <ele>41</ele>
    </trkpt>
    <trkpt lat="-32.769151" lon="-71.479931">
      <ele>41</ele>
    </trkpt>
    <trkpt lat="-32.769016" lon="-71.479955">
      <ele>40</ele>
    </trkpt>
    <trkpt lat="-32.768881" lon="-71.479987">
      <ele>40</ele>
    </trkpt>
    <trkpt lat="-32.768748" lon="-71.48003">
      <ele>40</ele>
    </trkpt>
    <trkpt lat="-32.768615" lon="-71.480086">
      <ele>41</ele>
    </trkpt>
    <trkpt lat="-32.768484" lon="-71.480148">
      <ele>41</ele>
    </trkpt>
    <trkpt lat="-32.768358" lon="-71.480223">
      <ele>40</ele>
    </trkpt>
    <trkpt lat="-32.768233" lon="-71.480306">
      <ele>39</ele>
    </trkpt>
    <trkpt lat="-32.767279" lon="-71.48099">
      <ele>29</ele>
    </trkpt>
    <trkpt lat="-32.766907" lon="-71.481258">
      <ele>25</ele>
    </trkpt>
    <trkpt lat="-32.766562" lon="-71.481521">
      <ele>23</ele>
    </trkpt>
    <trkpt lat="-32.76644" lon="-71.481615">
      <ele>22</ele>
    </trkpt>
    <trkpt lat="-32.766316" lon="-71.481704">
      <ele>21</ele>
    </trkpt>
    <trkpt lat="-32.766183" lon="-71.481787">
      <ele>20</ele>
    </trkpt>
    <trkpt lat="-32.766048" lon="-71.481859">
      <ele>20</ele>
    </trkpt>
    <trkpt lat="-32.765908" lon="-71.481924">
      <ele>20</ele>
    </trkpt>
    <trkpt lat="-32.765768" lon="-71.48198">
      <ele>20</ele>
    </trkpt>
    <trkpt lat="-32.765642" lon="-71.482009">
      <ele>20</ele>
    </trkpt>
    <trkpt lat="-32.765516" lon="-71.482031">
      <ele>19</ele>
    </trkpt>
    <trkpt lat="-32.765389" lon="-71.482042">
      <ele>19</ele>
    </trkpt>
    <trkpt lat="-32.765263" lon="-71.482042">
      <ele>19</ele>
    </trkpt>
    <trkpt lat="-32.765135" lon="-71.482034">
      <ele>19</ele>
    </trkpt>
    <trkpt lat="-32.765053" lon="-71.481961">
      <ele>19</ele>
    </trkpt>
    <trkpt lat="-32.764199" lon="-71.48114">
      <ele>18</ele>
    </trkpt>
    <trkpt lat="-32.764176" lon="-71.481124">
      <ele>18</ele>
    </trkpt>
    <trkpt lat="-32.764147" lon="-71.481116">
      <ele>18</ele>
    </trkpt>
    <trkpt lat="-32.764124" lon="-71.481116">
      <ele>18</ele>
    </trkpt>
    <trkpt lat="-32.764099" lon="-71.481124">
      <ele>19</ele>
    </trkpt>
    <trkpt lat="-32.764045" lon="-71.481175">
      <ele>19</ele>
    </trkpt>
    <trkpt lat="-32.763901" lon="-71.481309">
      <ele>20</ele>
    </trkpt>
    <trkpt lat="-32.763822" lon="-71.481207">
      <ele>20</ele>
    </trkpt>
    <trkpt lat="-32.763747" lon="-71.4811">
      <ele>20</ele>
    </trkpt>
    <trkpt lat="-32.763677" lon="-71.480987">
      <ele>20</ele>
    </trkpt>
    <trkpt lat="-32.763391" lon="-71.480526">
      <ele>18</ele>
    </trkpt>
    <trkpt lat="-32.76317" lon="-71.480167">
      <ele>17</ele>
    </trkpt>
    <trkpt lat="-32.763035" lon="-71.479968">
      <ele>17</ele>
    </trkpt>
    <trkpt lat="-32.762893" lon="-71.479775">
      <ele>19</ele>
    </trkpt>
    <trkpt lat="-32.762728" lon="-71.479566">
      <ele>19</ele>
    </trkpt>
    <trkpt lat="-32.762554" lon="-71.479367">
      <ele>17</ele>
    </trkpt>
    <trkpt lat="-32.762457" lon="-71.479282">
      <ele>16</ele>
    </trkpt>
    <trkpt lat="-32.762356" lon="-71.479201">
      <ele>16</ele>
    </trkpt>
    <trkpt lat="-32.76225" lon="-71.479126">
      <ele>16</ele>
    </trkpt>
    <trkpt lat="-32.762123" lon="-71.479048">
      <ele>16</ele>
    </trkpt>
    <trkpt lat="-32.761995" lon="-71.478978">
      <ele>16</ele>
    </trkpt>
    <trkpt lat="-32.761862" lon="-71.478919">
      <ele>16</ele>
    </trkpt>
    <trkpt lat="-32.760734" lon="-71.47845">
      <ele>19</ele>
    </trkpt>
    <trkpt lat="-32.759676" lon="-71.478005">
      <ele>20</ele>
    </trkpt>
    <trkpt lat="-32.759568" lon="-71.47797">
      <ele>20</ele>
    </trkpt>
    <trkpt lat="-32.759457" lon="-71.477946">
      <ele>20</ele>
    </trkpt>
    <trkpt lat="-32.759347" lon="-71.477932">
      <ele>20</ele>
    </trkpt>
    <trkpt lat="-32.759236" lon="-71.47793">
      <ele>20</ele>
    </trkpt>
    <trkpt lat="-32.759144" lon="-71.477935">
      <ele>20</ele>
    </trkpt>
    <trkpt lat="-32.759054" lon="-71.477949">
      <ele>20</ele>
    </trkpt>
    <trkpt lat="-32.758963" lon="-71.477967">
      <ele>20</ele>
    </trkpt>
    <trkpt lat="-32.758875" lon="-71.477994">
      <ele>20</ele>
    </trkpt>
    <trkpt lat="-32.758787" lon="-71.478029">
      <ele>21</ele>
    </trkpt>
    <trkpt lat="-32.757587" lon="-71.478528">
      <ele>20</ele>
    </trkpt>
    <trkpt lat="-32.75747" lon="-71.478579">
      <ele>19</ele>
    </trkpt>
    <trkpt lat="-32.756969" lon="-71.478785">
      <ele>19</ele>
    </trkpt>
    <trkpt lat="-32.756209" lon="-71.479102">
      <ele>16</ele>
    </trkpt>
    <trkpt lat="-32.756027" lon="-71.47918">
      <ele>15</ele>
    </trkpt>
    <trkpt lat="-32.755803" lon="-71.479274">
      <ele>14</ele>
    </trkpt>
    <trkpt lat="-32.755722" lon="-71.479306">
      <ele>13</ele>
    </trkpt>
    <trkpt lat="-32.755539" lon="-71.479373">
      <ele>12</ele>
    </trkpt>
    <trkpt lat="-32.755458" lon="-71.4794">
      <ele>13</ele>
    </trkpt>
    <trkpt lat="-32.75533" lon="-71.479429">
      <ele>14</ele>
    </trkpt>
    <trkpt lat="-32.755201" lon="-71.479453">
      <ele>14</ele>
    </trkpt>
    <trkpt lat="-32.755061" lon="-71.479472">
      <ele>14</ele>
    </trkpt>
    <trkpt lat="-32.754919" lon="-71.479483">
      <ele>14</ele>
    </trkpt>
    <trkpt lat="-32.754779" lon="-71.479485">
      <ele>14</ele>
    </trkpt>
    <trkpt lat="-32.754637" lon="-71.47948">
      <ele>14</ele>
    </trkpt>
    <trkpt lat="-32.754463" lon="-71.479472">
      <ele>14</ele>
    </trkpt>
    <trkpt lat="-32.754231" lon="-71.479453">
      <ele>14</ele>
    </trkpt>
    <trkpt lat="-32.753967" lon="-71.479443">
      <ele>14</ele>
    </trkpt>
    <trkpt lat="-32.753193" lon="-71.479314">
      <ele>14</ele>
    </trkpt>
    <trkpt lat="-32.752605" lon="-71.478987">
      <ele>15</ele>
    </trkpt>
    <trkpt lat="-32.752503" lon="-71.478949">
      <ele>16</ele>
    </trkpt>
    <trkpt lat="-32.752402" lon="-71.478914">
      <ele>15</ele>
    </trkpt>
    <trkpt lat="-32.752298" lon="-71.47889">
      <ele>15</ele>
    </trkpt>
    <trkpt lat="-32.752203" lon="-71.478877">
      <ele>14</ele>
    </trkpt>
    <trkpt lat="-32.752108" lon="-71.478866">
      <ele>13</ele>
    </trkpt>
    <trkpt lat="-32.752014" lon="-71.478863">
      <ele>13</ele>
    </trkpt>
    <trkpt lat="-32.751917" lon="-71.478869">
      <ele>12</ele>
    </trkpt>
    <trkpt lat="-32.751711" lon="-71.47889">
      <ele>11</ele>
    </trkpt>
    <trkpt lat="-32.751653" lon="-71.478895">
      <ele>11</ele>
    </trkpt>
    <trkpt lat="-32.751382" lon="-71.47893">
      <ele>9</ele>
    </trkpt>
    <trkpt lat="-32.75133" lon="-71.478906">
      <ele>9</ele>
    </trkpt>
    <trkpt lat="-32.751208" lon="-71.478847">
      <ele>8</ele>
    </trkpt>
    <trkpt lat="-32.751091" lon="-71.478777">
      <ele>7</ele>
    </trkpt>
    <trkpt lat="-32.751019" lon="-71.478742">
      <ele>8</ele>
    </trkpt>
    <trkpt lat="-32.750845" lon="-71.478654">
      <ele>8</ele>
    </trkpt>
    <trkpt lat="-32.750486" lon="-71.47845">
      <ele>10</ele>
    </trkpt>
    <trkpt lat="-32.750362" lon="-71.478372">
      <ele>11</ele>
    </trkpt>
    <trkpt lat="-32.750132" lon="-71.478246">
      <ele>11</ele>
    </trkpt>
    <trkpt lat="-32.749762" lon="-71.478016">
      <ele>12</ele>
    </trkpt>
    <trkpt lat="-32.7496" lon="-71.477911">
      <ele>12</ele>
    </trkpt>
    <trkpt lat="-32.749476" lon="-71.477822">
      <ele>11</ele>
    </trkpt>
    <trkpt lat="-32.749126" lon="-71.477573">
      <ele>12</ele>
    </trkpt>
    <trkpt lat="-32.749029" lon="-71.477495">
      <ele>12</ele>
    </trkpt>
    <trkpt lat="-32.748934" lon="-71.47742">
      <ele>13</ele>
    </trkpt>
    <trkpt lat="-32.748772" lon="-71.477294">
      <ele>13</ele>
    </trkpt>
    <trkpt lat="-32.748745" lon="-71.477273">
      <ele>13</ele>
    </trkpt>
    <trkpt lat="-32.748614" lon="-71.477171">
      <ele>13</ele>
    </trkpt>
    <trkpt lat="-32.74856" lon="-71.477243">
      <ele>13</ele>
    </trkpt>
    <trkpt lat="-32.748508" lon="-71.477326">
      <ele>14</ele>
    </trkpt>
    <trkpt lat="-32.748436" lon="-71.477466">
      <ele>14</ele>
    </trkpt>
    <trkpt lat="-32.748375" lon="-71.477603">
      <ele>15</ele>
    </trkpt>
    <trkpt lat="-32.748343" lon="-71.477729">
      <ele>15</ele>
    </trkpt>
    <trkpt lat="-32.748325" lon="-71.477881">
      <ele>15</ele>
    </trkpt>
    <trkpt lat="-32.748312" lon="-71.477981">
      <ele>15</ele>
    </trkpt>
    <trkpt lat="-32.74828" lon="-71.478362">
      <ele>15</ele>
    </trkpt>
    <trkpt lat="-32.748249" lon="-71.47863">
      <ele>15</ele>
    </trkpt>
    <trkpt lat="-32.748217" lon="-71.478933">
      <ele>13</ele>
    </trkpt>
    <trkpt lat="-32.748185" lon="-71.479121">
      <ele>13</ele>
    </trkpt>
    <trkpt lat="-32.748149" lon="-71.479306">
      <ele>12</ele>
    </trkpt>
    <trkpt lat="-32.748106" lon="-71.479467">
      <ele>12</ele>
    </trkpt>
    <trkpt lat="-32.748059" lon="-71.479625">
      <ele>11</ele>
    </trkpt>
    <trkpt lat="-32.748007" lon="-71.47978">
      <ele>11</ele>
    </trkpt>
    <trkpt lat="-32.747946" lon="-71.479931">
      <ele>12</ele>
    </trkpt>
    <trkpt lat="-32.747829" lon="-71.480175">
      <ele>12</ele>
    </trkpt>
    <trkpt lat="-32.747802" lon="-71.480231">
      <ele>12</ele>
    </trkpt>
    <trkpt lat="-32.747694" lon="-71.480424">
      <ele>12</ele>
    </trkpt>
    <trkpt lat="-32.747624" lon="-71.480569">
      <ele>13</ele>
    </trkpt>
    <trkpt lat="-32.747493" lon="-71.480832">
      <ele>12</ele>
    </trkpt>
    <trkpt lat="-32.747421" lon="-71.480977">
      <ele>12</ele>
    </trkpt>
    <trkpt lat="-32.747344" lon="-71.481132">
      <ele>11</ele>
    </trkpt>
    <trkpt lat="-32.747245" lon="-71.481333">
      <ele>10</ele>
    </trkpt>
    <trkpt lat="-32.747118" lon="-71.481588">
      <ele>11</ele>
    </trkpt>
    <trkpt lat="-32.746981" lon="-71.481867">
      <ele>11</ele>
    </trkpt>
    <trkpt lat="-32.746866" lon="-71.482098">
      <ele>11</ele>
    </trkpt>
    <trkpt lat="-32.746678" lon="-71.482476">
      <ele>10</ele>
    </trkpt>
    <trkpt lat="-32.746505" lon="-71.482852">
      <ele>12</ele>
    </trkpt>
    <trkpt lat="-32.746333" lon="-71.483224">
      <ele>12</ele>
    </trkpt>
    <trkpt lat="-32.746123" lon="-71.483675">
      <ele>11</ele>
    </trkpt>
    <trkpt lat="-32.745952" lon="-71.484061">
      <ele>12</ele>
    </trkpt>
    <trkpt lat="-32.74588" lon="-71.484222">
      <ele>13</ele>
    </trkpt>
    <trkpt lat="-32.745808" lon="-71.484383">
      <ele>12</ele>
    </trkpt>
    <trkpt lat="-32.745724" lon="-71.484539">
      <ele>12</ele>
    </trkpt>
    <trkpt lat="-32.745636" lon="-71.484689">
      <ele>12</ele>
    </trkpt>
    <trkpt lat="-32.745564" lon="-71.484802">
      <ele>12</ele>
    </trkpt>
    <trkpt lat="-32.745487" lon="-71.484909">
      <ele>12</ele>
    </trkpt>
    <trkpt lat="-32.745406" lon="-71.485013">
      <ele>12</ele>
    </trkpt>
    <trkpt lat="-32.745323" lon="-71.485113">
      <ele>12</ele>
    </trkpt>
    <trkpt lat="-32.745302" lon="-71.485134">
      <ele>12</ele>
    </trkpt>
    <trkpt lat="-32.745235" lon="-71.485209">
      <ele>13</ele>
    </trkpt>
    <trkpt lat="-32.745144" lon="-71.4853">
      <ele>13</ele>
    </trkpt>
    <trkpt lat="-32.745054" lon="-71.485373">
      <ele>14</ele>
    </trkpt>
    <trkpt lat="-32.744777" lon="-71.485601">
      <ele>15</ele>
    </trkpt>
    <trkpt lat="-32.744156" lon="-71.486127">
      <ele>13</ele>
    </trkpt>
    <trkpt lat="-32.744082" lon="-71.486191">
      <ele>13</ele>
    </trkpt>
    <trkpt lat="-32.743895" lon="-71.486349">
      <ele>13</ele>
    </trkpt>
    <trkpt lat="-32.743734" lon="-71.486483">
      <ele>13</ele>
    </trkpt>
    <trkpt lat="-32.743288" lon="-71.486861">
      <ele>14</ele>
    </trkpt>
    <trkpt lat="-32.743148" lon="-71.48698">
      <ele>14</ele>
    </trkpt>
    <trkpt lat="-32.742622" lon="-71.487422">
      <ele>16</ele>
    </trkpt>
    <trkpt lat="-32.742421" lon="-71.487655">
      <ele>16</ele>
    </trkpt>
    <trkpt lat="-32.742221" lon="-71.487881">
      <ele>17</ele>
    </trkpt>
    <trkpt lat="-32.742011" lon="-71.488109">
      <ele>16</ele>
    </trkpt>
    <trkpt lat="-32.741763" lon="-71.488364">
      <ele>15</ele>
    </trkpt>
    <trkpt lat="-32.741699" lon="-71.488414">
      <ele>15</ele>
    </trkpt>
    <trkpt lat="-32.741684" lon="-71.488423">
      <ele>15</ele>
    </trkpt>
    <trkpt lat="-32.741643" lon="-71.488444">
      <ele>15</ele>
    </trkpt>
    <trkpt lat="-32.741422" lon="-71.488567">
      <ele>15</ele>
    </trkpt>
    <trkpt lat="-32.741187" lon="-71.488688">
      <ele>14</ele>
    </trkpt>
    <trkpt lat="-32.740989" lon="-71.488782">
      <ele>14</ele>
    </trkpt>
    <trkpt lat="-32.740788" lon="-71.48887">
      <ele>14</ele>
    </trkpt>
    <trkpt lat="-32.740671" lon="-71.488927">
      <ele>15</ele>
    </trkpt>
    <trkpt lat="-32.740335" lon="-71.489053">
      <ele>15</ele>
    </trkpt>
    <trkpt lat="-32.740244" lon="-71.48908">
      <ele>16</ele>
    </trkpt>
    <trkpt lat="-32.740077" lon="-71.489125">
      <ele>16</ele>
    </trkpt>
    <trkpt lat="-32.73987" lon="-71.489187">
      <ele>16</ele>
    </trkpt>
    <trkpt lat="-32.739795" lon="-71.489206">
      <ele>16</ele>
    </trkpt>
    <trkpt lat="-32.739719" lon="-71.489214">
      <ele>16</ele>
    </trkpt>
    <trkpt lat="-32.739642" lon="-71.489214">
      <ele>17</ele>
    </trkpt>
    <trkpt lat="-32.739565" lon="-71.489203">
      <ele>18</ele>
    </trkpt>
    <trkpt lat="-32.739489" lon="-71.489184">
      <ele>19</ele>
    </trkpt>
    <trkpt lat="-32.739412" lon="-71.489155">
      <ele>19</ele>
    </trkpt>
    <trkpt lat="-32.739335" lon="-71.489117">
      <ele>20</ele>
    </trkpt>
    <trkpt lat="-32.739265" lon="-71.489066">
      <ele>21</ele>
    </trkpt>
    <trkpt lat="-32.739197" lon="-71.48901">
      <ele>21</ele>
    </trkpt>
    <trkpt lat="-32.739119" lon="-71.488943">
      <ele>22</ele>
    </trkpt>
    <trkpt lat="-32.738791" lon="-71.488656">
      <ele>26</ele>
    </trkpt>
    <trkpt lat="-32.738645" lon="-71.488519">
      <ele>28</ele>
    </trkpt>
    <trkpt lat="-32.737792" lon="-71.487773">
      <ele>33</ele>
    </trkpt>
    <trkpt lat="-32.737699" lon="-71.487693">
      <ele>34</ele>
    </trkpt>
    <trkpt lat="-32.737605" lon="-71.487618">
      <ele>35</ele>
    </trkpt>
    <trkpt lat="-32.737505" lon="-71.487551">
      <ele>36</ele>
    </trkpt>
    <trkpt lat="-32.737404" lon="-71.487489">
      <ele>38</ele>
    </trkpt>
    <trkpt lat="-32.737298" lon="-71.487435">
      <ele>40</ele>
    </trkpt>
    <trkpt lat="-32.73719" lon="-71.487393">
      <ele>42</ele>
    </trkpt>
    <trkpt lat="-32.737061" lon="-71.48735">
      <ele>44</ele>
    </trkpt>
    <trkpt lat="-32.73693" lon="-71.487317">
      <ele>45</ele>
    </trkpt>
    <trkpt lat="-32.736797" lon="-71.487296">
      <ele>44</ele>
    </trkpt>
    <trkpt lat="-32.736664" lon="-71.487288">
      <ele>42</ele>
    </trkpt>
    <trkpt lat="-32.736449" lon="-71.487299">
      <ele>43</ele>
    </trkpt>
    <trkpt lat="-32.736158" lon="-71.487334">
      <ele>48</ele>
    </trkpt>
    <trkpt lat="-32.735443" lon="-71.487494">
      <ele>58</ele>
    </trkpt>
    <trkpt lat="-32.734843" lon="-71.487626">
      <ele>59</ele>
    </trkpt>
    <trkpt lat="-32.734315" lon="-71.487741">
      <ele>59</ele>
    </trkpt>
    <trkpt lat="-32.734128" lon="-71.487795">
      <ele>59</ele>
    </trkpt>
    <trkpt lat="-32.733936" lon="-71.487838">
      <ele>60</ele>
    </trkpt>
    <trkpt lat="-32.73381" lon="-71.487857">
      <ele>59</ele>
    </trkpt>
    <trkpt lat="-32.733683" lon="-71.487873">
      <ele>58</ele>
    </trkpt>
    <trkpt lat="-32.733586" lon="-71.487883">
      <ele>58</ele>
    </trkpt>
    <trkpt lat="-32.733426" lon="-71.487891">
      <ele>57</ele>
    </trkpt>
    <trkpt lat="-32.733268" lon="-71.487891">
      <ele>57</ele>
    </trkpt>
    <trkpt lat="-32.733108" lon="-71.487883">
      <ele>56</ele>
    </trkpt>
    <trkpt lat="-32.732172" lon="-71.48772">
      <ele>58</ele>
    </trkpt>
    <trkpt lat="-32.73149" lon="-71.487596">
      <ele>58</ele>
    </trkpt>
    <trkpt lat="-32.73077" lon="-71.487537">
      <ele>57</ele>
    </trkpt>
    <trkpt lat="-32.73029" lon="-71.487489">
      <ele>58</ele>
    </trkpt>
    <trkpt lat="-32.730184" lon="-71.487486">
      <ele>58</ele>
    </trkpt>
    <trkpt lat="-32.729678" lon="-71.487454">
      <ele>59</ele>
    </trkpt>
    <trkpt lat="-32.728471" lon="-71.487374">
      <ele>68</ele>
    </trkpt>
    <trkpt lat="-32.727641" lon="-71.487301">
      <ele>75</ele>
    </trkpt>
    <trkpt lat="-32.72712" lon="-71.487258">
      <ele>76</ele>
    </trkpt>
    <trkpt lat="-32.726556" lon="-71.487216">
      <ele>76</ele>
    </trkpt>
    <trkpt lat="-32.725989" lon="-71.487175">
      <ele>75</ele>
    </trkpt>
    <trkpt lat="-32.725899" lon="-71.48717">
      <ele>75</ele>
    </trkpt>
    <trkpt lat="-32.724897" lon="-71.487092">
      <ele>77</ele>
    </trkpt>
    <trkpt lat="-32.724829" lon="-71.487089">
      <ele>77</ele>
    </trkpt>
    <trkpt lat="-32.724155" lon="-71.487049">
      <ele>74</ele>
    </trkpt>
    <trkpt lat="-32.723794" lon="-71.48703">
      <ele>72</ele>
    </trkpt>
    <trkpt lat="-32.723672" lon="-71.48702">
      <ele>71</ele>
    </trkpt>
    <trkpt lat="-32.723259" lon="-71.486996">
      <ele>70</ele>
    </trkpt>
    <trkpt lat="-32.722395" lon="-71.487607">
      <ele>73</ele>
    </trkpt>
    <trkpt lat="-32.722031" lon="-71.487862">
      <ele>74</ele>
    </trkpt>
    <trkpt lat="-32.721546" lon="-71.488181">
      <ele>75</ele>
    </trkpt>
    <trkpt lat="-32.720876" lon="-71.488642">
      <ele>77</ele>
    </trkpt>
    <trkpt lat="-32.720772" lon="-71.488726">
      <ele>78</ele>
    </trkpt>
    <trkpt lat="-32.719533" lon="-71.489592">
      <ele>77</ele>
    </trkpt>
    <trkpt lat="-32.719511" lon="-71.489493">
      <ele>77</ele>
    </trkpt>
    <trkpt lat="-32.719414" lon="-71.48905">
      <ele>77</ele>
    </trkpt>
    <trkpt lat="-32.719396" lon="-71.489013">
      <ele>77</ele>
    </trkpt>
    <trkpt lat="-32.719375" lon="-71.488975">
      <ele>77</ele>
    </trkpt>
    <trkpt lat="-32.71935" lon="-71.488943">
      <ele>77</ele>
    </trkpt>
    <trkpt lat="-32.719328" lon="-71.489018">
      <ele>76</ele>
    </trkpt>
    <trkpt lat="-32.719292" lon="-71.489088">
      <ele>76</ele>
    </trkpt>
    <trkpt lat="-32.718572" lon="-71.490147">
      <ele>70</ele>
    </trkpt>
    <trkpt lat="-32.718506" lon="-71.490246">
      <ele>69</ele>
    </trkpt>
    <trkpt lat="-32.717863" lon="-71.491266">
      <ele>73</ele>
    </trkpt>
    <trkpt lat="-32.717701" lon="-71.491515">
      <ele>74</ele>
    </trkpt>
    <trkpt lat="-32.717547" lon="-71.491748">
      <ele>75</ele>
    </trkpt>
    <trkpt lat="-32.717383" lon="-71.492003">
      <ele>76</ele>
    </trkpt>
    <trkpt lat="-32.716496" lon="-71.491314">
      <ele>70</ele>
    </trkpt>
    <trkpt lat="-32.716151" lon="-71.491008">
      <ele>67</ele>
    </trkpt>
    <trkpt lat="-32.715683" lon="-71.49173">
      <ele>68</ele>
    </trkpt>
    <trkpt lat="-32.715379" lon="-71.491464">
      <ele>66</ele>
    </trkpt>
    <trkpt lat="-32.715309" lon="-71.491405">
      <ele>65</ele>
    </trkpt>
    <trkpt lat="-32.714785" lon="-71.491427">
      <ele>64</ele>
    </trkpt>
    <trkpt lat="-32.714165" lon="-71.491419">
      <ele>61</ele>
    </trkpt>
    <trkpt lat="-32.713912" lon="-71.491432">
      <ele>61</ele>
    </trkpt>
    <trkpt lat="-32.713873" lon="-71.491649">
      <ele>62</ele>
    </trkpt>
    <trkpt lat="-32.713858" lon="-71.491676">
      <ele>62</ele>
    </trkpt>
    <trkpt lat="-32.713835" lon="-71.491698">
      <ele>62</ele>
    </trkpt>
    <trkpt lat="-32.71381" lon="-71.491714">
      <ele>62</ele>
    </trkpt>
    <trkpt lat="-32.713783" lon="-71.491727">
      <ele>62</ele>
    </trkpt>
    <trkpt lat="-32.713752" lon="-71.49173">
      <ele>61</ele>
    </trkpt>
    <trkpt lat="-32.713721" lon="-71.491725">
      <ele>60</ele>
    </trkpt>
    <trkpt lat="-32.71366" lon="-71.492288">
      <ele>63</ele>
    </trkpt>
  </trkseg>
</trk>
</gpx>